county,licnum,sitename,streetaddy,cityaddy,zip
Broward,1601438,Tarks Of Dania,1317 S Federal Hwy,Dania,33004-4361
Broward,1609502,Saveur Tropical Restaurant,515 NE 24 St,Pompano Beach,33064
Broward,1610123,Betty's Rest & BBQ,601 NW 22 Road,Fort Lauderdale,33311-7756
Broward,1610222,Jade Garden Restaurant,244 S University Dr,Plantation,33324
Broward,1616508,Fortune Dragon,7178 N University Dr,Tamarac,33321
Broward,1616931,Asain Grill,7462 Royal Palm Blvd,Margate,33063-6881
Broward,1617882,Ruchi Indian Restaurant,17085 Pines Blvd,Pembroke Pines,33027
Broward,1618482,Duffy's Sports Grill,811 S University Dr,Plantation,33324
Broward,1619578,Carls Seafood Rest Take Out,2934 N State Road 7,Lauderdale Lakes,33313
Broward,1620203,Pollo Tropical #56,14880 SW 31 St,Miramar,33027
Broward,1620527,Asian Buffet & Grill,240 S Federal Highway,Deerfield Beach,33441
Broward,1620853,Smokey Bones Bar & Fire Grill #7533,809 S University Dr,Plantation,33324
Broward,1621370,Maxi Arepa,11386 Miramar Parkway,Miramar,33025
Broward,1621484,Cheddars Casual Cafe,7951 W Commercial Blvd,Tamarac,33321
Broward,1621911,Mr Fish Peruvian Kitchen And Market,"1605 N State Road 7, Suite B",Marget,33063
Broward,1621956,Ric Kin Bing Cuban Cafe Corp,640 E Sample Road,Pompano Beach,33064
Broward,1621981,Sal's Italian Ristorante,"6280 W Sample Road #206, #206",Coral Springs,33067
Broward,1622255,America's Bakery,5022 N Federal Hwy,Lighthouse Point,33064
Broward,1623041,China Star,4233 W Commercial Blvd,Tamarac,33319
Broward,1623388,Amc Theatres Coral Ridge 10,3401 NE 26 Ave,Fort Lauderdale,33306
Broward,1623614,The Steakout,"123 NE 20 Ave, Suite 7",Deerfield Beach,33441
Broward,1623643,Blaze Pizza,6334 N Andrews Ave,Fort Lauderdale,33309
Broward,1623746,Blaze Pizza,2135 S University Dr,Davie,33324
Broward,1623778,La Caravane Take Out Restaurant,560 NE 44 Street,Pompano Beach,33064
Broward,1623951,Este Es Mucho Perro Llc,"8006 W Mcnab Road, Shoppes Of Mcnab",North Lauderdale,33068
Broward,1623958,Sabores Brasil,4831 N Dixie Hwy,Deerfield Beach,33064
Palm Beach,6000392,Debra's Place,785 Northlake Blvd,North Palm Beach,33408-5211
Palm Beach,6005485,"Tideline Ocean Resort And Spa - Palm Beach, A Kimpton Hotel",2842 S Ocean Blvd,Palm Beach,33480
Palm Beach,6008080,Chinatown,3101 Pga Blvd #L217,Palm Beach Gardens,33410-2816
Palm Beach,6008699,Mckenna's Place,4068 Forrest Hill Blvd,Palm Springs,33406
Palm Beach,6010069,Nypd Pizza,127 Federal Hwy,Lake Worth,33460
Palm Beach,6010123,Pollo Tropical #92,2611 Okeechobee Blvd,West Palm Beach,33409-4007
Palm Beach,6010225,Couco Pazzo,915-917 Lake Ave,Lake Worth,33460
Palm Beach,6010700,Fratelli's Italian Grill,"6600 W Atlantic Ave, Suite C",Delray Beach,33446-1604
Palm Beach,6011424,Taqueria Guerrero,628 Belvedere Road,West Palm Beach,33405-1231
Palm Beach,6012182,Taco Al Carbon,4420 Lake Worth Road,Lake Worth,33461
Palm Beach,6014070,Fuel For Fit Fl,1501 S Dixie Hwy,Lantana,33462
Palm Beach,6019435,Dunkin Donuts,12040 S Jog Road,Boynton Beach,33437
Palm Beach,6019842,Mccrays Backyard BBQ And Seafood,1549 W Blue Heron Blvd,Riviera Beach,33404
Palm Beach,6019992,La Granja Restaurant,4282 Okeechobee Blvd,West Palm Beach,33409
Palm Beach,6020708,Mel's Way Bistro & Bar,3536 Via Poinciana Dr,Lake Worth,33467
Palm Beach,6020866,Jon Smith Subs,1124 Royal Palm Beach Blvd,Royal Palm Beach,33411
Palm Beach,6021469,Cabo Flats,1352 S US Hwy 1,Jupiter,33477
Palm Beach,6021672,Carnitas Lunch,2107 10Th Ave North,Lake Worth,33461
Palm Beach,6021685,Panaderia Y Restaurante El Limon Llc,11 N H St,Lake Worth,33460
Dade,2300174,Express-O-Cafe,4767 NW 36 St,Miami Springs,33166
Dade,2301334,Mingies Chinese Restaurant,760 NW 183rd St,Miami,33169
Dade,2302205,Hia Burger King,891 W 49 St,Hialeah,33012
Dade,2302441,Bamboo Garden Chinese Rest,1232 NE 163 St,North Miami Beach,331624637
Dade,2313910,Kung Fu Restaurant,1098 W 29 St,Hialeah,33012
Dade,2316103,Los Primos Cafeteria & Grill #2,1864 SW 8 St,Miami,33135
Dade,2316608,Gold China Restaurant,15055 S Dixie Hwy,Miami,331767930
Dade,2316923,La Criollita Cafeteria,3701 NW 79 St,Miami,331474438
Dade,2316938,Bagel Cove Restaurant And Deli,19003 Biscayne Blvd,Aventura,33180
Dade,2317268,Church's Chicken #1109,17495 NW 27 Ave,Opa-Locka,33056
Dade,2317455,Southern Long Gong Restaurant Llc,11920 SW 8 St,Miami,33184
Dade,2317878,Simon Lumiere Restaurant,12750 W Dixie Hwy,North Miami,33161
Dade,2319321,Church's Chicken #1101,13200 NW 27 Ave,Opa-Locka,33054
Dade,2320070,L C's Fast Food Joint,19505 NW 2 Ave,Miami,331693335
Dade,2320186,El Rinconcito Paisa #4,9700 SW 24 St,Miami,33165
Dade,2320492,Lings Garden,12749 Biscayne Blvd,North Miami,331812003
Dade,2320990,Y & C Restaurant Inc,1242 NE 163 St,North Miami Beach,33162
Dade,2321288,Yi-Wong Chinese Rest,13760 SW 8 St,Miami,331843030
Dade,2321904,Bagels & Co,11064 Biscayne Blvd,Miami,33161-7477
Dade,2323288,Outback Steakhouse,3161 NE 163 St,North Miami Beach,33160
Dade,2325658,Berries Coconut Grove,2884 SW 27 Ave,Coconut Grove,331333760
Dade,2326266,Ocean Five Bistro,444 Ocean Dr,Miami Beach,33139
Dade,2326333,El Pub Restaurant,1548 SW 8 St,Miami,33135
Dade,2326493,Romanos Macaroni Grill,8700 NW 18 Terrace,Miami,33172
Dade,2326554,Mex Mexican Grill,16850 Collins Ave Ste-104,Sunny Isles Beach,33160
Dade,2326792,Moshi Moshi,1448 Washington Ave,Miami Beach,33139
Dade,2326855,Bocas Grill,3399 NW 72 Ave #128,Miami,33122
Dade,2326991,La Gran Parada Dominicana,7503 NW 32 Ave,Miami,33147
Dade,2327021,Holiday Inn Miami/Doral Area,3255 NW 87 Ave,Miami,33166
Dade,2327201,Lutong Pindy Filipino Cuisine,17048 W Dixie Hwy,North Miami Beach,33160
Dade,2327662,Las Brisas Cafe,18190 W Dixie Hwy,North Miami Beach,33160
Dade,2328217,Sushi Express,17044 W Dixie Hwy,North Miami Beach,33160
Dade,2328244,Bryan Cafeteria,450 E 4 Avenue,Hialeah,33010
Dade,2328689,China Buffet,18690 NW 67 Ave,Hialeah,33015
Dade,2328723,El Gran Inka,3155 NE 163 St,Golden Beach,33160
Dade,2329207,Ray's Cakes & Catering Llc,16606 N Miami Ave,Miami,33169
Dade,2330417,Happy Buffet,1533 W 49 St,Hialeah,33012-2924
Dade,2330825,Sak Pase Restaurant,27156 S Dixie Hwy,Naranja,33032
Dade,2331007,Social Cafe,1024 Ocean Drive,Miami Beach,33139
Dade,2332107,Fruteria Latin Proud,4290 E 4 Ave,Hialeah,33013
Dade,2332886,Gari Maria Restaurant Inc,229 NW 22 Ave,Miami,33125
Dade,2333407,Aroma Espresso Bar,540 Collins Ave,Miami Beach,33139
Dade,2333494,Dominos Pizza,17028 Collins Ave,Sunny Isles,33160
Dade,2333674,Restaurant At Croydon / The Tavern,3720 Collins Ave,Miami Beach,33140
Dade,2333920,Ceviche Inka,14782 SW 56 St,Miami,33185
Dade,2334035,Hilton Cabana Miami Beach-L'Echon,6261 Collins Ave,Miami Beach,33140
Dade,2334080,Wingstop,1452-1454 NE 163 St,North Miami Beach,33162
Dade,2334087,Traymore By Michael Schwartz,2445 Collins Avenue,Miami Beach,33140
Dade,2334256,Dunkin Donuts,95 NW 167 St,North Miami Beach,33169
Dade,2334448,Nikki Hampton Edwards Catering And Planning,3185 NW 207 Street,Miami Gardens,33056
Dade,2335016,Eat Greek Express,3530 Biscayne Blvd,Miami,33137
Dade,2335142,Bodegon 71,1014 71 St,Miami Beach,33141
Dade,2335640,Cilantro And Limes,"941 W Palm Dr , Suite 7-8",Florida City,33034
Dade,2335893,Browns Kitchen,27455 South Dixie Hwy Booth 11,Homestead,33032
Monroe,5402678,Outback Steakhouse,3230 N Roosevelt Blvd,Key West,33040
Monroe,5402682,Waffle House #1310,100270 Overseas Hwy,Key Largo,33037
Monroe,5402811,nan,1801 N Roosevelt Blvd,Key West,33040
Citrus,1900187,West 82,9301 W Fort Island Trl,Crystal River,34429
Citrus,1900890,Suncoast Bar & Grill,10350 W Yulee Dr,Homosassa,34448
Citrus,1901176,Mr King Chinese Restaurant,471 1 Terr Ne,Crystal River,34429
Citrus,1901235,Clawdaddys Raw Bar & Grill,1601 SE Hwy 19,Crystal River,34429
Hernando,3700791,Thai Cuisine,11078 Spring Hill Dr,Spring Hill,34608
Hernando,3700922,Golden Wok,4148 Mariner Blvd,Spring Hill,34609
Hernando,3700963,Hernando Oaks Golf Club,5230 Delacroix Dr,Brooksville,34604
Hernando,3701045,China Taste,19328 Cortez Blvd,Brooksville,34601
Hernando,3701089,Beef O Brady'S,"14387 Springhill Dr, Suite 400",Spring Hill,34609
Hernando,3701167,Twistee Treat,13190 Cortez Blvd,Brooksville,34613
Hernando,3701199,Pk's Shipwreck,7224 Shoal Line Blvd,Weeki Wachee,34607
Hernando,3701230,Huddle House,1170 South Broad Street,Brooksville,34601
Hernando,3750231,La Cucina Internazionale,3065 Anderson Snow Road,Spring Hill,34609
Hillsborough,3900188,Sunset Grill At Little Harbor,611 Destiny Dr,Ruskin,33570
Hillsborough,3900224,Aguila Sandwich Shop,3200 W. Hillsborough Ave.,Tampa,33614
Hillsborough,3900418,Waterworks Grill,111 W Fortune St,Tampa,336023206
Hillsborough,3904126,Northdale Golf $ Tennis Club,4417 Northdale Blvd,Tampa,33624
Hillsborough,3904339,3 Coins Diner Llc,7410 Nebraska Ave,Tampa,33604
Hillsborough,3905934,Amore Mio Italian Restaurant Llc,6803 N Armenia Ave,Tampa,33604
Hillsborough,3906563,Sheraton Tampa East,10221 Princess Palm Ave,Tampa,33610
Hillsborough,3909861,Beef 'O' Brady's Palma Ceia,2819 S Macdill Ave,Tampa,33629
Hillsborough,3910771,Vallartas Mexican Restaurant,13731 N Dale Mabry,Tampa,336182417
Hillsborough,3910796,Rivers Edge At Sheraton,200 N Ashley Dr,Tampa,33602
Hillsborough,3910985,Joe's New York Diner Llc,11701 N Florida Ave,Tampa,33612
Hillsborough,3911554,Salems Gyro & Subs,1611 N Nebraska Ave,Tampa,33602
Hillsborough,3911714,Palm River Cafe,7754 Palm River Road,Tampa,33619
Hillsborough,3912388,Dippin Dots Ice Cream Carts,3000 E Busch Blvd,Tampa,33612
Hillsborough,3912760,Bay Leaves Indian Cuisine,4023 W Waters Ave,Tampa,33614
Hillsborough,3915713,Tsunami Sushi And Hibachi Grill,2020 Badlands Dr,Brandon,33511
Hillsborough,3915870,Mama Rosa's Pizza,1616 E 7 Ave,Tampa,33605
Hillsborough,3916488,Bungalow Restaurant And Bar,2202 W Kennedy Blvd,Tampa,33606
Hillsborough,3916733,Ny Guys Grill & Smoothie,"6431 E County Line Road, Suite 104",Tampa,33647
Hillsborough,3917299,La Cabana Restaurant,5302 N Armenia Ave,Tampa,33603
Hillsborough,3917574,Saki Endless Sushi & Hibachi Restaurant,11921 N Dale Mabry,Tampa,33618
Hillsborough,3917618,Osaka Sushi & Grill,14428 N Dale Mabry Hwy,Tampa,33618
Hillsborough,3917685,The Kahwa,"4941 E Busch Blvd, Suite 320",Tampa,33617
Hillsborough,3917949,Caribbean Styles Restaurant Llc,4013 N 34 St,Tampa,33610
Hillsborough,3918192,China 1,"4350 W Water Ave , Suite 103",Tampa,33614
Hillsborough,3951956,Taco Bus,913 E Hillsborough Ave,Tampa,33604
Pasco,6100869,Quality Inn & Suites New Port Richey,5316 US 19 North,New Port Richey,34652-3946
Pasco,6101314,Seaside Inn,5330 Treadway Dr,Port Richey,346686343
Pasco,6102530,Papa Johns #1911,8921 State Road 52,Hudson,34667
Pasco,6102564,Villa Pizza,9409 US Hwy 19,Port Richey,34668
Pasco,6102604,China Max,9409 US Hwy 19 #635,Port Richey,34668
Pinellas,6200098,First Class Concessions Inc,14501 Roosevelt Blvd #12,Clearwater,33762
Pinellas,6200961,Rhondavous Bar,9919 Seminole Blvd,Seminole,33772
Pinellas,6206289,Wendy's Old Fashioned Hamburgers,2290 Gulf To Bay Blvd,Clearwater,33765
Pinellas,6208039,Kfc,6595 Park Blvd,Pinellas Park,33781
Pinellas,6208208,Chuck E Cheese Pizza Time,1024 N 58 St,St Petersburg,337106327
Pinellas,6210264,Pasadena Yacht & Country Club Dining,6300 Pasadena Point Blvd,Gulfport,33707
Pinellas,6210947,Checkers,1972 Gulf-To-Bay Blvd,Clearwater,33765
Pinellas,6211679,Kennys Korner Restaurant Llc,17702 Gulf Blvd,Redington Shores,33708
Pinellas,6213618,Three Birds Tavern,1492 4 St North,St. Petersburg,33704
Pinellas,6214417,Indian Shores Coffee Company,19221 Gulf Blvd,Indian Shores,33785
Pinellas,6215694,Pia'S,3054 Beach Blvd S,Gulf Port,33707
Pinellas,6216193,Clay Oven,9047 Mlk Jr St N,St. Petersburg,33702
Pinellas,6216385,Burrito Border,17 3rd Street N,St. Petersburg,33701
Pinellas,6216424,Shark Tales,677 75 Ave,St.Pete Beach,33706
Pinellas,6216540,Britts Pizza,10709 Gulf Blvd,Treasure Island,33706
Pinellas,6216619,Urban Brew And BBQ Inc,1939 Central Ave,St. Petersburg,33713
Pinellas,6217007,Crispy Cajun,2097 Drew Street,Clearwater,33765
Pinellas,6217056,The Iberian Rooster,"475 Central Ave, Suite 100",St. Petersburg,33701
Pinellas,6217190,Red Mesa Mercado,1100 1St Avenue North,St. Petersburg,33705
Pinellas,6217357,Los Mexicanos,"2325 Ulmerton Road, Suite 3",Clearwater,33762
Pinellas,6217413,Big Apple Buffet,1030 58th St N,St. Petersburg,33710
Polk,6300420,Kfc,727 E Memorial Blvd,Lakeland,33801
Polk,6301116,Mcdonald's Restaurant,1470 N Broadway Ave,Bartow,33830
Polk,6303476,Schalamar Creek Caddy Shack Restaurant,4500 Hwy 92 E  Unit 1028,Lakeland,33801
Polk,6304146,Checkers #183,2919 S Florida Ave,Lakeland,338034032
Polk,6304291,Kountry Klub,3100 Canal Road,Lake Wales,338535602
Polk,6304672,Jack And Mary's Restaurant,1360 State Road 60 E,Lake Wales,33853
Polk,6305082,Chili's Winter Haven Fla #409,699 Cypress Gdns Blvd,Winter Haven,338804458
Polk,6307685,Providence Golf Club,1518 Clubhouse Blvd,Davenport,33837
Polk,6308047,Pizzanos Pizza & Grinderz,126 California Blvd,Davenport,33897
Polk,6308142,Jerk Chicken Express81,3800 US 98 N #684,Lakeland,33809
Polk,6308156,Anita's Mexican Restaurant Llc,114 W Central Ave,Lake Wales,33853
Polk,6308274,Hungry Howies #3000,2805 Shepherd Road,Lakeland,33811
Polk,6308442,Jamaican Jerk Kitchen,210 W 8 St,Lakeland,33805
Polk,6350577,Taco San Marcos Corp,201 S Charleston Ave,Fort Meade,33841
Polk,6350593,Roberto Hernandez,3250 Lake Alfred Road,Winter Haven,33881
Brevard,1501960,Italy Italy Rest & Pizzeria,1934 Wickham Road,Melbourne,329358106
Brevard,1505486,Subway Unit #385,1700 New Haven Avenue,West Melbourne,32904
Brevard,1505719,Subway 25830,3120 N Courtenay Pkwy,Merritt Island,32953
Brevard,1505873,Chef Mario's Cafe,1437 Highland Ave,Melbourne,32935
Brevard,1505898,America's Best Value Inn And Suites,4431 W New Haven Ave,West Melbourne,32904
Brevard,1506150,Squid Lips Waterfront,1477 Pineapple Ave,Melbourne,32935
Brevard,1506204,Thai Thai House,"215 Palm Bay Road NE, Suite 169",Melbourne,32904
Brevard,1506386,Pollo Tropical,4335 W Norfolk Pkwy,West Melbourne,32904
Brevard,1506439,Backwater,1904 Municipal Lane,Melbourne,32901
Brevard,1506703,"El Indio Restaurant, Inc",1369 S Babcock St Unit 15,Melbourne,32901
Brevard,1506761,La Catrina Mexican Restaurant,315 W Cocoa Beach Causeway,Cocoa Beach,32931
Brevard,1506762,Brasas Peruvian Grill Indialantic Llc,"2 5 Ave, Suite C",Indialantic,32903
Indian River,4100996,Checker's Drive- In Restaurant,7850 Roseland Road,Sebastian,32958
Indian River,4105107,Ay Jalisco Iii,1814 US Hwy 1,Sebastian,32958
Orange,5802955,Chirico,4302 S Semoran Blvd,Orlando,32822
Orange,5803518,Astro Skating Center Of Orlando,866 S Goldenrod Road,Orlando,32822
Orange,5805698,Denny'S,440 S Semoran Blvd,Orlando,32807
Orange,5806445,Pizza De Milan,3201 E Colonial Dr #F4,Orlando,32803
Orange,5807019,Giant Panda,11726 E Colonial Dr,Orlando,32817
Orange,5807074,Checkers #6316,13495 W Colonial Dr,Winter Garden,34787
Orange,5807437,Rio Pinar Golf Club-Bar And Grill,8600 El Prado Dr,Orlando,32825
Orange,5809177,Food With Care,6995 Venture Cir,Orlando,32807
Orange,5810450,Jersey Mike's Subs,2100 Edgewater Dr,Orlando,32804
Orange,5810902,Hoffner Catering & Supply,4880 B Distribution Ct Unit 1-2,Orlando,32822
Orange,5811086,Kfc Y309216,5200 S John Young Pkwy,Orlando,32839
Orange,5811406,Cici's Pizza 580,7437 International Dr,Orlando,32819
Orange,5811575,Pizzeria Valdiano,421 N Alafaya Tr,Orlando,32828
Orange,5811819,Chucks Wagon Homecooking,60 E Main St,Apopka,32703
Orange,5812707,Mc Burger & Charbroiled Chicken,"3201 E Colonial Dr, Suite F-5",Orlando,32803
Orange,5813294,Flippers Pizzeria #17 Llc,11062 International Dr,Orlando,32821
Orange,5814064,Toothsome Chocolate Emporium & Savory Feast Kitchen-1St Floor,1000 Universal Studios Plaza,Orlando,32819
Orange,5814065,Greenbeat,8200 Vineland Ave #1202,Orlando,32821
Orange,5854614,Hot Dog Station 4,"4959 International Dr , Suite 1F25",Orlando,32819
Osceola,5910917,China Wok,1320 N John Young Pkwy,Kissimmee,34741-4110
St. Lucie,6600775,Taqueria Las Brisas Llc,"850 S 21 St, Suite F",Fort Pierce,34950
St. Lucie,6602180,Chinese Thai To Go,431 N 25 St,Ft Pierce,34947
St. Lucie,6602384,Harbor Cove,1930 Harbortown Dr,Fort Pierce,34946
St. Lucie,6602491,Cowboys BBQ & Steak Co Of Ft Pierce Llc,5000 Okeechobee Road,Fort Pierce,34947
St. Lucie,6602908,Raziyah Caribbean Cuisine Inc,214 N 25 St,Fort Pierce,34947
Seminole,6900528,Burger King #1516,1477 State Road 436,Casselberry,32707
Seminole,6900950,Cafe Perks,2101 S French Ave,Sanford,32771
Seminole,6904522,Orchid Thai Cuisine Lake Mary,1210 S International Pkwy # 162,Lake Mary,32746
Volusia,7404892,Horus Egyptian Restaurant & Lounge,1500 W International Speedway Blvd,Daytona Beach,32114
Volusia,7406644,Jts Billiards & Grill,1517 S Ridgewood Ave,Edgewater,32132
Volusia,7407405,C's Waffles,1816 S Ridgewood Ave,Edgewater,32141
Alachua,1103201,Mochi,"3841 SW Archer Road, Suite E",Gainesville,32608
Alachua,1103302,Southern Charm Kitchen,1714 SE Hawthorne Road,Gainesville,32641
Bradford,1400194,Popeyes #129,1050 Walnut Street,Starke,32091
Columbia,2250085,Abuelita's Cuisine,473 SW Sherlock Terrace,Lake City,32024
Dixie,2500161,China 1,16714 US 19 Se,Cross City,32628
Duval,2600420,Cj Crab House & Seafood,5892 Norwood Ave,Jacksonville,32208
Duval,2600596,The Market Place Main,6837 Ramona Blvd,Jacksonville,32205
Duval,2608119,Bono's Pit Bar B Q,5903 Norwood Ave,Jacksonville,322084345
Duval,2608646,Market Place #3,6909 Ramona Blvd,Jacksonville,32205
Duval,2609501,Olympia Cafe,2550 Mayport Road #5,Jacksonville,32225
Duval,2611323,Cross Creek BBQ & Steak,850 S Lane Ave,Jacksonville,322054705
Duval,2611394,Market Place #4,6839 Ramona Blvd,Jacksonville,32205
Duval,2612083,Domino's #3127,5045 Soutel Dr #14,Jacksonville,32208
Duval,2612291,Wendys #64,14447 Beach Blvd,Jacksonville,32250
Duval,2612334,Benny's Steak & Seafood,2 Independent Dr #175,Jacksonville,32202
Duval,2612341,Canteen,629 Stevens St,Jacksonville,32205
Duval,2612424,Blu Diner,5868 Norwood Ave,Jacksonville,32208
Duval,2612782,Gili's Kitchen,126 W Adams St,Jacksonville,32202
Duval,2612942,A&D Buffalo,9501 Arlington Expressway #9,Jacksonville,32225
Duval,2612994,Ali's Fish Market,1809 W 45 St,Jacksonville,32209
Duval,2613020,Casa Dora Italian Cafe,108 E Forsyth St,Jacksonville,32202
Duval,2613027,Jax Beach Organic Meals,3325 Plymouth Street Suite 1,Jacksonville,32205
Duval,2614038,Championz Sports Bar & Lounge,5063 Normandy Blvd,Jacksonville,32205
Duval,2614071,Tamarind Thai,1661 Riverside Ave #123,Jacksonville,32204
Duval,2614446,Aki 7,"11900 Atlantic Blvd, Suite 221",Jacksonville,32225
Duval,2614841,The Courtyard Cafe,440 W Adams St,Jacksonville,32202
Duval,2614976,Corner Pizza,7185 Crane Ave,Jacksonville,32216
Duval,2615024,Two Cooking Cousins,1807 W 45 St,Jacksonville,32209
Duval,2615106,Royal Buffet,5086 Normandy Blvd,Jacksonville,32205
Duval,2615217,The Stout Snug,1198 Edgewood Ave S,Jacksonville,32205
Duval,2615234,Harvest Cafe Of Jacksonville,11526 Lake Mead Ave #101,Jacksonville,32256
Duval,2615263,Intuition Ale Works,929 W Bay St,Jacksonville,32202
Duval,2615368,Mojos Crab Shack,3111  Edgewood Ave N,Jacksonville,32254
Duval,2615369,China 99,5846 Atlantic Blvd,Jacksonville,32207
Duval,2615436,Graham's Sous Chef Kitchen,623 Beechwood St,Jacksonville,32206
Duval,2615470,Lechonera El Coqui,3620 Blanding Blvd,Jacksonville,32210
Duval,2651341,Taqueria Junior,5150 Normandy Blvd,Jacksonville,32205
Duval,2651603,Blue Crabber,5401 Lenox Ave,Jacksonville,32205
Gilchrist,3100122,Hobos Restaurant,115 NW 1 St,Trenton,32693
Gilchrist,3100127,El Taco Regio,321 N Main St,Trenton,32693
Marion,5201357,Cal's Place,11007 SE 66 Terr,Belleview,34420
Marion,5201954,Little Caesars,10135 US Hwy 441,Belleview,344202850
Marion,5202203,Hunter's Place,3541 NE Jacksonville Road,Ocala,34479
Marion,5202377,Swampys Bar & Grille Dunnellon,19773 E Pennsylvania Ave,Dunnellon,34432
Marion,5202396,Louie's Seafood Steak & Oyster Bar,1900 S Pine Ave,Ocala,34471
Marion,5202726,Steve's Trackside Bar,16485 S US 301,Summerfield,34491
Marion,5202761,Hollywood Stadium 16 Ocala,2801 SW 27 Ave,Ocala,34474
Marion,5250675,Smokey's Real Grill Barbeque,1606 NE 17th Terr,Ocala,34470
St. Johns,6501042,Magnuson Hotel,1111 Ponce De Leon Blvd,Saint Augustine,32084
St. Johns,6501071,Rufino's Pizza,2700 State Road 16 #207,Saint Augustine,32092
St. Johns,6501137,Denny's #8003,2455 State Road 16,Saint Augustine,32084
St. Johns,6501451,Dan Murphy's Irish Pub,"4320 A1A South, Suite 9 & 10",Saint Augustine,32080
St. Johns,6501534,Bai Tong Thai Sushi,"3915 A1A S, Suite 101",Saint Augustine,32080
St. Johns,6501573,Sushi Zento And Grill,1061 A1A Beach Blvd,Saint Augustine,32080
St. Johns,6501901,Aunt Kate'S,612 Euclid Avenue,Saint Augustine,32084
St. Johns,6502040,Mezcal Cantina Authentic Mexican Grill,"880 A1A N, Suite 18B",Ponte Vedra,32082
Suwannee,7100326,China Kitchen,927 Ohio Ave S,Live Oak,32064
Dade,2328530,Cafe Vert,9490 Harding Avenue,Surfside,33154
Broward,1616780,Boston Market #230,1781 E Commercial Blvd,Fort Lauderdale,33334-5737
Palm Beach,6019033,Brooklyns Original Pizza,3025 S Federal Hwy,Delray Beach,33483
Palm Beach,6020289,Mojito,700 S Rosemary Ave #228,West Palm Beach,33401
Hernando,3701156,Golden Corral,5300 Commercial Way,Spring Hill,34606
Hillsborough,3911952,Kfc/Taco Bell,5367 Ehrlich Road,Tampa,33625
Hillsborough,3916377,Jamaica Jamaica Island Cuisine,8206 W Waters Ave #116,Tampa,33615
Hillsborough,3952190,Mexican Food,3121 E. Hillsborough Ave.,Tampa,33610
Pasco,6102536,20Th Hole Bar & Grill,8342 New York Ave,Hudson,34667
Pinellas,6215614,Tikanis,9385 Bay Pines Blvd,St. Petersburg,33708
Lake,4508660,Saffron Indian Restaurant,16744 Cagan Crossings Blvd #104,Clermont,34714
Lake,4508761,The Friar Tuck,"16640 Cagan Crossings Blvd., Suite 302",Clermont,34714
Orange,5810456,Veronica Restaurant,4300 S Orange Blossom Trl,Orlando,32839
Orange,5814039,Sunshine Soul Food Café,2528 W Colonial Dr Suite #B,Orlando,32804
Orange,5814197,Sunshine Seafood Bar & Grill,2528 W Colonial Dr,Orlando,32804
Orange,5854109,Kappu Bistro By Cappuccio Express,5811 W Irlo Bronson Memorial Hwy,Kissimmee,34746
Osceola,5911004,BBQ Tonight,"3260 Vineland Road, Suite 106",Kissimmee,34746
Columbia,2200695,Italian Pizzeria And Restaurant,"1077 W US Hwy 90, Suite 40",Lake City,32055
Duval,2612747,Oceanway Bar And Grille,12905 N Main St,Jacksonville,32218
Duval,2613367,Sydney An Australian Beach Club,205 1 St N,Jacksonville Beach,32250
Marion,5202925,Freddy's Frozen Custard & Steakburger,"3558 SW College Road,, Suite 100",Ocala,34474
St. Johns,6500018,Paulas Beachside Grill,6896 A1A South,Saint Augustine,32080
Bay,1303327,Montego Bay Seafood House & Oyster Bar,473 Richard Jackson Blvd,Panama City Beach,32407
Bay,1305359,The Red Elephant Pizza & Grill,2499 Martin Luther King Jr Blvd,Panama City,32405
Bay,1305368,Shoney'S,"101 Bluefish Dr, Suite 105",Panama City Beach,32413
Bay,1305545,Sandbar Seafood House & Deli,275 S Highway 79,Panama City Beach,32413
Escambia,2700668,El Agave Mexican Restaurant Inc,3811 W Navy Blvd,Pensacola,32507
Escambia,2701871,Wow Wing & Deli,2111 W Fairfield Dr,Pensacola,32505
Escambia,2702491,The Deli Case,"4400 Bayou Blvd, Suite 55",Pensacola,32503
Escambia,2705134,Happy China Restaurant,4810 Mobile Hwy,Pensacola,32506
Escambia,2705616,Sams Fun City & Sams Surf City,6709 Pensacola Blvd,Pensacola,32505
Escambia,2705734,Valley Services Inc  Unit 6020,120 South 'I' St,Pensacola,32501
Escambia,2706049,Castaways Beachside Restaurant & Raw Bar,400 Quietwater Beach Road,Pensacola,32561
Escambia,2706231,Shux Oyster Bar,509 S Palafox Place,Pensacola,32502
Franklin,2901231,Hog Wild Bar B Q,1593 W Highway 98,Carrabelle,32322
Gadsden,3000171,Burger King #06289,1400 W Jefferson St,Quincy,32351
Gadsden,3000334,Aj's Chicken & Things,203 W. Jefferson St.,Quincy,32351
Jackson,4200222,Mcdonald'S,2090 Hwy 71,Marianna,32448
Jackson,4200537,McDonald's #35242,2510 US Hwy 231,Cottondale,32431
Leon,4702169,Zaxby'S,2319 N Monroe St,Tallahassee,32303
Leon,4702454,China First,"400 SE Capital Cir, Suite 24",Tallahassee,323013802
Leon,4702500,Gordos Restaurant,1907 W Pensacola St,Tallahassee,32304
Leon,4702963,Wells Brothers Bar & Grill,1710 W Tharpe St,Tallahassee,32303
Leon,4703042,Pho Me!,2320 Apalachee Parkway Unit E,Tallahassee,32301
Leon,4703122,New Times Country Buffet,1701 N Monroe St,Tallahassee,32303
Leon,4703123,Bandidos Burrito Company,910 Lake Bradford Road,Tallahassee,32304
Leon,4703215,Zaxby'S,1380 Capital Circle Nw,Tallahassee,32304
Leon,4703344,Leola's Crab Shack,710-C West Orange Avenue,Tallahassee,32310
Leon,4703446,The Other Seineyard,1660-6 No Monroe,Tallahassee,32303
Leon,4703627,Joy Luck Place,1002 N Monroe St,Tallahassee,32303
Leon,4703716,Los Compadres Express,2431 Barcelona Ln,Tallahassee,32311
Okaloosa,5601704,Lucky Strike Lanes,745  Beal Pkwy Nw,Ft Walton Bch,325473045
Okaloosa,5603614,Johnny O'Quigley's / Lil Quig's Irish Pub And Grille,34940 Emerald Coast Parkway #101,Destin,32541
Okaloosa,5604105,The Tipsy Pig,2504 Hwy 98 W,Mary Esther,32569
Santa Rosa,6700046,Milton Tastee Freez,6511 Caroline St,Milton,32570
Santa Rosa,6700972,Nim's Garden,6536 Hwy 90,Milton,32570
Santa Rosa,6701387,Ace's Restaurant,6583 Hwy 90,Milton,32570
Wakulla,7502851,Family Coastal Restaurant Of Wakulla Llc,2302 Crawfordville Hwy,Crawfordville,32327
Walton,7602195,Tropicana Club,400 E Nelson Avenue,Defuniak Springs,32433
Charlotte,1801377,Country Hound Cafe,"1951 S Mccall Road, Suite 530",Englewood,34223
Charlotte,1801757,Ice House Pub,408 Tamiami Trl,Punta Gorda,33950
Charlotte,1801905,Blue Turtle,139 W Marion Ave,Punta Gorda,33950
Collier,2101541,Dairy Queen #14049,4895 Golden Gate Parkway,Naples,34116
Collier,2102018,Taco Ardiente,1048 Pine Ridge Road,Naples,34108
Collier,2102348,Steamers Of Naples,5317 Airport Road,Naples,34109
Collier,2102420,Dragon Palace,1241 Airport Road S,Naples,34104
Collier,2103435,Brenda's Mexican Restaurant,211 West Main Street,Immokalee,34142
Glades,3200110,Duck Pub,1037 Lakeport Plaza,Okeechobee,34974
Highlands,3800447,Quality Inn & Suites,6525 US Hwy 27 North,Sebring,33870
Highlands,3800752,China Max,901 US 27 N #18,Sebring,33870
Highlands,3801157,Bo David's Restaurant And Bar,131 S Sun N Lakes Blvd,Lake Placid,33852
Lee,4601704,Eastwood Golf Cafe,4600 Bruce Herd Ln,Fort Myers,33905
Lee,4603811,Iguana Mia Of Ft Myers,4329 S Cleveland Ave,Fort Myers,339019037
Lee,4606192,Jill's Joint,889 NE 27th Lane #1,Cape Coral,33909
Lee,4606766,The Mix Grill Of Fort Myers Inc,4921 Palm Beach Blvd,Fort Myers,33905
Manatee,5104195,Finger Lickin' BBQ Bar & Grill,3142 53 Ave E,Bradenton,34203
Manatee,5104509,Bangkok Tokyo,7337 52 Place E,Bradenton,34203
Manatee,5105492,Sushi & Pho,3118 53rd Avenue East,Bradenton,34203
Manatee,5105628,Sushi Hana,4274 53rd Ave E,Bradenton,34203
Sarasota,6803597,The Serving Spoon,1825 S Osprey Ave,Sarasota,34239
Sarasota,6803649,Italian Grill (The),8620 S Tamiami Trail,Sarasota,342383045
Sarasota,6803986,Kentucky Fried Chicken,3780 E Bee Ridge Road,Sarasota,34233
Sarasota,6805083,China Chef,1131 S Toledo Blade Blvd #86,North Port,34288
Sarasota,6805203,Holiday Inn Sarasota Airport,8009 15th Street East,Sarasota,34243
Sarasota,6805362,La Mucca Ballerina,1668 Main St,Sarasota,34236
Sarasota,6805568,Icesmile,140 University Town Center Dr #175,Sarasota,34243
Dade,2324767,Chez Madame Johns Restaurant,975 NE 125 St,North Miami,331615742
Broward,1623417,Smoothie King,3 N State Road 7,Plantation,33317
Palm Beach,6013323,Yeung's Lotus Express,"10300  West Forest Hill Blvd,, Suite 101",Wellington Green,33414
Palm Beach,6021820,Paradise Biryani Pointe,7667 Lake Worth Road,Lake Worth,33467
Brevard,1500478,Pineda Inn Bar & Grill Inc,6533 S US Hwy 1,Rockledge,32955
St. Lucie,6602675,Subway,7534 S Federal Hwy,Port St Lucie,34952
Volusia,7406948,Tiano's Italian Restaurant Inc,1000 Wayne Ave,New Smyrna Beach,32168
Duval,2614965,Jville Crab Shack Number 3,700 N Edgewood Ave,Jacksonville,32254
Putnam,6400884,Hoot Owl Farm House,1821 Reid St,Palatka,32177
St. Johns,6501546,Howard Johnson Inn,137 San Marco Ave,St Augustine,32084
Lee,4606706,Golden Corral,410 Andalusia Blvd,Cape Coral,33909
Hillsborough,3910568,Szechuan House,508 N Franklin St,Tampa,33602
Hillsborough,3915648,Grand China,6168 Gunn Highway,Tampa,33625-4014
Pinellas,6208950,Rae Rae's Cafe,5701 Central Ave,St. Petersburg,33710
Polk,6307870,China Mei Wei Buffet,4250 US 98 N,Lakeland,33809
Dade,2330012,Cafe South Beach,121 5 St,Miami Beach,33139
Dade,2334002,Wingmania Of Homestead,28600 SW 137 Ave A2,Homestead,33033
Broward,1623140,Vinnie Lobster Bar,5810 S University Dr #118,Davie,33328
Palm Beach,6005680,Chung Wah,6017 S Dixie Hwy,West Palm Beach,33405
Palm Beach,6011515,Blue Anchor,804 E Atlantic Ave,Delray Beach,33483
Brevard,1506830,Tree Of Life Cuban Food,2400 Dairy Road,West Melbourne,32904
Indian River,4100626,Captain Hiram'S,1606 Indian River Dr,Sebastian,329581610
Lake,4508371,China Kitchen,"7985 State Road 50, Suite D 300",Groveland,34736
Volusia,7403366,Mannys Pizza,3318 S Atlantic Ave,New Smyrna Beach,32169
Duval,2608112,Quality Inn,6802 Commonwealth Ave,Jacksonville,32254
Duval,2610303,Jax What's Cookin,1921 Lane Ave S,Jacksonville,32210
Marion,5202788,Pineapple Sam's Cafe,18976 E Hwy 40,Silver Springs,34488
Gadsden,3000377,Denny's #8566,32670 Blue Star Hwy,Midway,32343
Hardee,3500246,Smokin Joes BBQ,4050 Hwy 17 N,Bowling Green,33834
Lee,4604364,Jerseys Sports Cafe,13971 N Cleveland Ave,North Fort Myers,33903
Manatee,5150386,Pollos Asados La Frontera,1100 8th Ave W,Palmetto,34221
Hillsborough,3916711,Hamburger Mary's Bar And Grille,1800 East 8th Ave Unit E-202,Tampa,33605
Pasco,6113544,Cosmos Family Restaurant,1600 US Hwy 19,Holiday,34691
Pinellas,6213591,The Bayou Cafe,118 E Tarpon Ave,Tarpon Springs,34689
Pinellas,6216630,Asian Pearl,2551 Drew St #104,Clearwater,33765
Dade,2326593,Simon Restaurant & Catering Services,15042 NW 7 Ave,Miami,33168
Dade,2326861,China Express,5301 NE 2 Ave,Miami,33137
Dade,2331059,The Daily Creative Food Co,2001 North Biscayne Blvd,Miami,33137
Dade,2335402,Booby Trap On The River,3615 NW South River Drive,Miami,33142
Monroe,5428248,Fernandy's Cafe Llc,1110 White St,Key West,33040
Broward,1608102,Sawgrass Lanes,8501 N University Dr,Fort Lauderdale,33321-1719
Broward,1624471,A Tasty Meal,"12221 Pembroke Road, Suite 502",Pembroke Pines,33025
Broward,1624663,Eat Clean,3834 N University Dr,Sunrise,33351
Brevard,1505832,Copperhead Tavern,205 5th Avenue,Indialantic,32903
Orange,5807781,Sazon's Restaurant Buffet And Grill,701 W Lancaster Road,Orlando,32809
Orange,5812267,Avenue,13 S Orange Ave,Orlando,32801
Alachua,1102902,New Hot Wok House,3006 NW 13 St,Gainesville,32609
Bradford,1400163,Subway Sandwiches & Salads,236 S Temple Ave,Starke,32091
Duval,2610888,Byblos Gyros & Kabobs,"10916 Atlantic Blvd , Suite 6",Jacksonville,32225
Duval,2614064,Jjs Crab House,1963 Kings Road #2,Jacksonville,32209
Flagler,2800768,Zaxbys,180 Cypress Edge Dr,Palm Coast,32164
Bay,1305465,Ketana Thai Restaurant And Sushi Bar,10514 Front Beach Road,Panama City Beach,32407
Hillsborough,3915612,Molly Malone's Irish Pub,"304 E Davis Blvd, Suite E",Tampa,33606
Pinellas,6213686,Doe Does Diner,9395 Bay Pines Blvd,St. Petersburg,33708
Pinellas,6216673,Toasted Monkey Beach Bar & Sports Grill,6110 Gulf Blvd,St.Pete Beach,33706
Dade,2314897,Garcias Ranch House,1548 W 84 St,Hialeah,33014
Dade,2316253,Los Perros,6828 NW 169th Street,Hialeah,33015
Dade,2330982,Fritaybon Goutalix Restaurant,12143 NW 7 Ave,Miami,33168
Dade,2335422,Pizza Station,6824 NW 169 St,Hialeah,33015
Broward,1620974,Tamarac Thai And Sushi,7658 N Nob Hill Road,Tamarac,33321
Broward,1622425,Oceano Bistro & Lounge,1350 N Ocean Blvd,Pompano Beach,33062
Palm Beach,6012654,Pollo Tropical #50,107 N State Road 7,Royal Palm Beach,33411
Hernando,3700888,The Cove,3192 Shoal Line Blvd,Hernando Beach,34607
Hillsborough,3910922,La Giraldilla Hanley,8218 Hanley Road,Tampa,33634
Pinellas,6216322,Senor Taco,6447 Park Blvd Ste# 1,Pinellas Park,33781
Pinellas,6216720,Holiday Inn,1200 34 St N,St. Petersburg,33713
Polk,6350606,Mr Jyro #2,5457 US Hwy 985,Highland City,33846
Sumter,7000320,Mo's Family Restaurant,2306 N Cr 470,Lake Panasoffkee,33538-6162
Lake,4508352,Gators Dockside,601 Cagan Park Blvd,Clermont,34714
Orange,5813107,Chef Eddies Restaurant,"595 W Church St, Suite E",Orlando,32805
Duval,2614877,Ale Pie House,3951 St Johns Ave,Jacksonville,32205
Escambia,2701501,Cordova Lanes Snk Bar,2111 Airport Blvd,Pensacola,325048917
Dade,2333894,Brio Tuscan Grille,8888 SW 136 St,Miami,33176
Dade,2327887,Main Moon Buffet,18423 S Dixie Hwy,Miami,33157
Dade,2328883,Wolsen Cafã,17100 Collins Avenue,Sunny Isles,33160
Palm Beach,6051172,Mi Mexico Lindo Y Que Rico,13955 Smith Sundy Road,Delray Beach,33446
Hillsborough,3917985,Dunkin Donuts # 2273,6055 West Waters Avenue,Tampa,33634
Hillsborough,3912840,Danny's All American Cafe,4406 Falkenburg Road,Tampa,33610
Sumter,7000327,Hacienda Hills Country Club Restaurant,1200 N Morse Blvd,Lady Lake,32159
Hillsborough,3905181,McDonald's #6522,1002 S 78 St,Tampa,336194750
Orange,5807175,The Mediterranean Spot,9430 E Colonial Dr,Orlando,32817
Brevard,1506599,Popeyes,725 Palm Bay Road Ne,West Melbourne,32904
St. Johns,6501905,Hurricane Grill And Wings,"4255 A1A South, Suite 13 & 14",Saint Augustine,32080
Walton,7600838,Rachels Diner,39 E Hwy 20,Freeport,32439
Bay,1302428,Eat My Pasty,280 S Arnold Road,Panama City Beach,32413
Lee,4607054,Caribbean Union Restaurant And Bakery,"2814 Lee Blvd , Suite 7",Lehigh Acres,33971-1561
Palm Beach,6005863,Bagel Tree Restaurant,6580 W Atlantic Ave,Delray Beach,33446
Broward,1616975,Hong Kong City BBQ,5301 N State Road 7,Tamarac,33319
Pinellas,6217371,The Lure,661 Central Ave Unit A,St Petersburg,33701
Hillsborough,3952215,Taqueria El Flako,2324 W Cypress St,Tampa,33609
Orange,5812704,Turquaz Turkish Cuisine Llc,5648 International Dr,Orlando,32819
Lake,4508560,Graffiti Junktion Clermont,2400 S Hwy 27 Bldg A 101,Clermont,34711
Clay,2001103,China Wok,"7380 State Road 100, Suite 9",Keystone Heights,32656
Lee,4606678,Buffalo Wild Wings,25271 Chamber Of Commerce Dr,Bonita Springs,34134
Highlands,3800549,Oscar's Family Restaurant,267 US 27 N,Sebring,33870
Dade,2328281,Wendys Old Fashioned Hamburgers,1856 NE Miami Gardens Dr,North Miami Beach,33179
Dade,2328698,Little Peru,6832 NW 169 St,Miami,33015
Broward,1615997,Shalamas Rotishop,1432 N State Road 7,Margate,33063
Palm Beach,6020967,Cabo Flats,"14851 Lyons Road, Suite 122",Delray Beach,33446
Hillsborough,3917279,Brandon Honda,9209 E Adamo Dr,Tampa,33619
Hernando,3700236,My Nanny's Restaurant,5323 Commercial Way,Spring Hill,34608
Orange,5813386,Jumbo Asian Diner,"7798 Winter Garden Vineland Road,, Suite 108",Windermere,34786
Duval,2600351,Southern Charm Foods,3566 St Augustine Road,Jacksonville,32207
Duval,2600525,Singleton Seafood Shack,4720 Ocean St,Mayport,322332426
Duval,2609284,Domino's #3863,12200 San Jose Blvd #22,Jacksonville,32223
Dade,2334625,Pandoree,195-197 NW 36 St,Miami,33127
Dade,2333885,Casa Maiz Restaurant,7395 W 4 Ave,Hialeah,33014
Broward,1600258,Woodlands Country Club,4600 Woodlands Blvd,Tamarac,33319
Hernando,3701138,Gigi's Pizza & Pasta,12505 Springhill Dr,Spring Hill,34609
Pinellas,6217634,Perrys Restaurant,3405 34 St N,St. Petersburg,33713
Hernando,3700961,International House Of Pancakes 36-169,3660 Commercial Way,Spring Hill,34606
Citrus,1900709,Sarah's Diner,216 NE Hwy 19,Crystal River,34429
Pinellas,6215987,Pierogi Grill & Steakhouse,1535 Gulf To Bay Blvd,Clearwater,33755
Hillsborough,3912543,Lula Mae's Cafe Llc,9393 N Florida Ave,Tampa,33612
Volusia,7401998,Pantheon Pizza,505 White St,Daytona Beach,32114
Duval,2651534,Taco Charro,11969 Beach Blvd,Jacksonville,32246
St. Johns,6501577,China Wok,3501 N Ponce De Leon Blvd,Saint Augustine,32084
Duval,2611391,Country Cabin,1401 Dunn Ave,Jacksonville,322184835
Escambia,2700211,Sam's Seafood Shanty,420 S 'A' St,Pensacola,325015558
Santa Rosa,6700139,Burger King # 1618,6682 Caroline St Hwy 90,Milton,32570
Manatee,5104564,Kostas Family Restaurant,1631 8th Ave W,Palmetto,34221
Lee,4603809,Lazy Flamingo,1036 Periwinkle Way,Sanibel,339576915
Monroe,5402719,Camille'S,1202 Simonton St,Key West,33040
Dade,2300751,Mirador Restaurant,1111 Royal Poinciana,Miami Spgs,33166
Dade,2328352,Einstein Bros Bagels #2666,202 Miracle Mile,Coral Gables,33134
Palm Beach,6021005,Sweet's Sensational Cuisine,25 SW 5 Ave,Delray Beach,33444
Broward,1624663,Healthy Kitchen,3834 N University Dr,Sunrise,33351
Palm Beach,6019904,Chipotle Mexican Grill #881,2380 Palm Beach Lakes Blvd,West Palm Beach,33409
Broward,1621528,La Costa,1855 S State Road 7,Fort Lauderdale,33317
Broward,1600346,Charm City Burger Co,1136 E Hillsboro Blvd,Deerfield Beach,33441
Broward,1601639,Dragon Teahouse,1327 E Commercial Blvd,Oakland Park,33334
Hillsborough,3917797,Potbelly,4011 George Jb Highway,Tampa,33607
Hillsborough,3912384,Steak N Shake #449,12921 Sheldon Road,Tampa,33625
Pasco,6102810,Carolinas Cuban Resturant,"152 15 US 19, Suite K",Hudson,34667
Pasco,6113387,Steph's Southern Restaurant,14519 5th St,Dade City,33523
Brevard,1505386,Asian Gourmet,459 N Harbor City Blvd,Melbourne,32935
Lake,4501822,Kings Ridge Golf Club,1950 Kings Ridge Boulevard,Clermont,34711
Lake,4508333,Akina,4300 S Highway 27,Clermont,34711
Seminole,6900043,Mayfair Country Club,3536 Country Club Road,Sanford,32773
Marion,5200051,Ocala National Golf Club Llc,4782 NW 80 Ave,Ocala,34482
Duval,2615135,Brentwood Golf Course,1157 Mbo1 Golfair Blvd.,Jacksonville,32209
Duval,2610406,Mascaras,3225 Southside Blvd #8,Jacksonville,32216
Marion,5202701,Arby's #8298,2150 NE 49 Ct Road,Ocala,34470
Duval,2610283,Best Western Premier,4700 Salisbury Road,Jacksonville,32256
St. Johns,6502180,The Loop Pizza Grill,"101 Marketside Avenue, Suite 401",Ponte Vedra,32081
Jackson,4200539,Dairy Queen Grill And Chill,State Road 71,Marianna,32448
Escambia,2706385,Sammy Barker'S,875 E Nine Mile Road Unit 7,Pensacola,32514
Collier,2101923,Everglades Adventure Center Llc,102 Collier Ave,Everglades City,34138
Lee,4606836,Rincon Latino 2,3524 Palm Beach Blvd,Fort Myers,33916
Manatee,5105491,O'Bricks Irish Pub,427 12Th St W,Bradenton,34205
Sarasota,6804676,Meadows Village Pub,5013 Ringwood Mdw,Sarasota,34235
Dade,2331283,Sawa,360 San Lorenzo Ave Ste# 1500,Coral Gables,33146
Dade,2317087,Chicken House #2,3203 NW  17 Ave,Miami,33142
Palm Beach,6007245,The Breakfast Shack,"3469 W Boynton Beach Blvd, Suite #1",Boynton Beach,33436
Palm Beach,6007995,Peking Place,531 S Main St,Belle Glade,33430
Broward,1622879,El Portal Restaurante,3438 W Hillsboro Blvd,Deerfield Beach,33442
Pinellas,6217126,Asian House Restaurant,6800 Gulfport Bl Suite #105,South Pasadena,33707
Pasco,6102516,Niko's Grill,14100 Hicks Road,Hudson,34669
Pinellas,6213928,Steak N Shake Inc #307,4480 Park St,Kenneth City,33709
Hillsborough,3904264,Church's Chicken,2301 N 50 St,Tampa,33619
Hillsborough,3952318,Paradise Cafe,608 Nebraska Ave,Tampa,33602
Pinellas,6213145,La Teresita,7101 N 66 St,Pinellas Park,337814004
Pinellas,6213109,Loon Fong Restaurant,8150 N 49 Street,Pinellas Park,337812419
Orange,5805454,New York Broadway Pizza,"6807 Visitors Cir , Suite B",Orlando,32819
Duval,2614988,Ez Grill,6675 Arlington Road N,Jacksonville,32211
Marion,5201613,Aunt Fannies Restaurant,1031 S Pine St,Ocala,34471
Escambia,2705904,Taqueria Olgy's #2,"5222 North W St, Suite 1",Pensacola,32505
Escambia,2706393,Indian Grill,5800 North W St Unit 3,Pensacola,32505
Manatee,5105409,Sunshine Caribbean Restaurant,6320 15 St E 2,Sarasota,34243
Dade,2334100,Paraiso Cafe,2156 NW 7 Ave,Miami,33127
Palm Beach,6007442,Portobolla,9770 S Military Trl,Boynton Beach,33436-3207
Palm Beach,6019442,Pei Wei Fresh Kitchen #0080,"1750 N Congress Ave, Suite 700",Boynton Beach,33426
Hillsborough,3912741,Copa's Latin American Cafe,1601 S 22 St,Tampa,33605
Hillsborough,3917455,Dosa Hut,10029 W Hillsborough Ave,Tampa,33615
Dade,2334045,Saleya,22 NE 3 Ave,Miami,33132
Broward,1613365,Nami Japanese Restaurant,8381 Pines Blvd,Pembroke Pines,33024
Broward,1652047,All Star Vendor Inc,1126 S Powerline Road,Deerfield Beach,33442
Palm Beach,6007321,The Spot,1301 Belvedere Road,West Palm Beach,33405-1011
Citrus,1900026,Oysters Restaurant,606 NE US Hwy 19,Crystal River,34429
Hillsborough,3917471,Billy's Seafood & Gyros,8501 N Nebraska Ave,Tampa,33604
Pinellas,6216948,Restaurant Ma Hai,1915 Drew St,Clearwater,33765
Hillsborough,3952318,Paradise Cafe,1123 N Florida Avenue,Tampa,33602
Brevard,1500452,Alamo Mexican Kitchen,5885 S US Hwy 1,Rockledge,329555736
St. Lucie,6602334,Steak N Shake #426,6737 Darter Ct,Ft Pierce,34945
Seminole,6903035,Subway 10798,1018 State Road 434,Longwood,32750
Orange,5801751,Moghul Indian Cuisine,401 N Semoran Blvd,Winter Park,32792
Marion,5202764,Taco Bell 26447,2380 SW College Road,Ocala,34471
Bay,1305802,Slapsticks Cue & Brew,1508 Calhoun Avenue,Panama City,32405
Bay,1305786,St. Andrews Slice House,1127 1/2 Beck Ave,Panama City,32401
Collier,2102631,China Garden,5947 Pine Ridge Road,Naples,34119
Dade,2326141,Restaurant El Trovador,1530 - 1532 NE 8 St,Homestead,33033
Palm Beach,6006540,Pizza Corner,3751 S Military Trl,Greenacres,33463
Palm Beach,6010359,Muscade Grill Llc,2166 N Dixie Hwy,Boca Raton,33431
Broward,1611948,Thai Thai Restaurant,1861 N Pine Island Road,Plantation,33322-5208
Palm Beach,6051121,Aloha Dogs,522 Lucerne Ave,Lake Worth,33460
Pinellas,6216961,Pho Queen Vietnamese Restaurant,29000 US Hwy 19 N,Clearwater,33761
Pinellas,6208711,Sunset Cinema Cafe Inc,24095 US 19 N,Clearwater,33763
Hernando,3701217,Checkers,4232 Commercial Way,Springhill,34606
Osceola,5909411,Little China,1930 N John Young Pkwy,Kissimmee,34741
Lake,4502007,China 1,"1107 W North Blvd, Suite #10",Leesburg,34748
Orange,5804612,Dan's Restaurant Family Llc,7300 E Colonial Dr,Orlando,32807
Suwannee,7100340,Beef O Brady'S,6844 Suwannee Plaza Lane,Live Oak,32060
Jackson,4200044,Circle Grill,5325 Cotton St,Graceville,324402249
Charlotte,1801100,Athens Grecian Delight,1441 Tamiami Trail #595,Port Charlotte,339481001
Manatee,5105588,Rj Gator's Sea Grill And Bar,6100 Cortez Road W,Bradenton,34210
Dade,2328805,Porter House Grill,17004 Collins Ave,Sunny Isles,33160
Dade,2326223,Sarku Japanese Food,1455 NW 107 Ave #440,Miami,33172
Broward,1624105,Dunkin Donuts,13700 Pines Blvd,Pembroke Pines,33027
Broward,1622771,Gyroville Really Fresh Really Greek,"1489C SE 17 St, Southport Shopping Center",Fort Lauderdale,33316
Palm Beach,6019617,Nico's Pizza Italian Cuisine,301 Clematis St,West Palm Beach,33401
Palm Beach,6020045,Bar Louie Boynton Beach,1500 Gateway Blvd #100,Boynton Beach,33426
Polk,6308051,Brick Oven Pizza,1304 N Church Ave,Mulberry,33860
Pinellas,6215137,Ithai & Sushi Sports Bar Llc,1230 Cleveland St,Clearwater,33755
Hillsborough,3905454,Denny'S,5603 E Hillsborough Ave,Tampa,33610
Indian River,4105250,American Golf Club,100 Woodland Dr,Vero Beah,32962
Orange,5808936,The Tavern,625 Rock Ridge Blvd,Apopka,32712
Orange,5854706,Elegantly Beastly,4880 Distribution Ct Unit 1 & 2,Orlando,32822
Marion,5201952,Stack'M,101 SW 60Th Ave,Ocala,34474
Bay,1305154,Moes Southwest Grill,"1000 E 23 St, Suite D",Panama City,32405
Escambia,2705307,Porky's Pizza,500 N Hwy 29 #A,Cantonment,32533
Lee,4601895,Casablance - Sabal Palm,1400 Estero Boulevard,Fort Myers Beach,33931
Collier,2101942,El Rincon De Mexico,2248 Tamiami Trail E,Naples,34112
Dade,2303181,El Crucero Restaurant,7050 SW 8 St,Miami,33144
Dade,2320282,Taj Mahal Bengal Indian Cuisine,4579 NW 36 St,Miami Springs,33166
Palm Beach,6013162,Andros Restaurant,7012 Sharleston Shors Blvd,Lake Worth,33467
Hillsborough,3911161,World Dining Llc,111 US 301 S,Tampa,33619
Pinellas,6207633,Babalu Restaurant & Full Bar,9246 4th St N,St. Petersburg,33702
Hillsborough,3917632,Cephas Hot Shop,1701 E 4th Ave,Ybor City,33605
Polk,6300424,Lake Wales Country Club,2925 Hwy 60 E,Lake Wales,33898
Hernando,3701184,Subway,132 Mariner Blvd,Spring Hill,34609
Hernando,3701087,Breakfast & Lunch Nook,1376 Pinehurst Dr,Spring Hill,34606
Pinellas,6209869,Chili's Bar & Grill #105,5430 E Bay Dr,Clearwater,33764
Orange,5813509,El Tenampa Bakery,11242 S Orange Blossom Trail,Orlando,32837
Orange,5806249,Bawarchi Biryanis,6315 International Dr,Orlando,32819
Orange,5808719,Amura,55 W Church St,Orlando,32801
Orange,5812964,#Forever Naan,"4205 Curry Ford Road, Suite B",Orlando,32806
Levy,4800537,Duncan's On The Gulf,490 Dock St,Cedar Key,32625
Marion,5201991,Subway Sandwiches,2210 E Silver Springs Blvd,Ocala,344706913
Duval,2609854,Wacko's Bar & Grill,3701 Emerson St,Jacksonville,322075642
Clay,2001127,Dick's Wings & Grill,1803 E West Pkwy,Fleming Island,32003
Collier,2102168,Subway,1870 N Tamiami Trl,Naples,34102
Collier,2102586,Taqueria San Julian 2,3575 Bayshore Dr,Naples,34112
Dade,2335534,Peninsula Retail,3301 NE 183 St,Aventura,33160
Dade,2300291,Los Frijolitos Inc,3061 NW S River Dr,Miami,33142
Broward,1624005,Los Tres Golpes Restaurant,320 NE 38th Street,Oakland Park,33334
Palm Beach,6005188,Le Berger Restaurant Llc,1216 S Dixie Hwy,Lake Worth,33460
Palm Beach,6021684,Dunkin Donuts,5641 Okeechobee Blvd,West Palm Beach,33417
Pinellas,6200121,Gigis Restaurant,105 107 Ave,Treasure Island,337064715
Pinellas,6207521,Subway #336,3355 5 Ave N,St. Petersburg,33713
Pinellas,6215755,Sushi Spice,"7570 Starkey Road, Suite E",Seminole,33777
Brevard,1504733,Xin Da Chinese Restaurant,2186 Sarno Road,Melbourne,32935
St. Johns,6550171,Datil Rooster,204 State Road 16,Saint Augustine,32084
Marion,5250695,River's Edge Bar & Grill,19400 SE Cr 42,Umatilla,32784
Duval,2613948,King Craw,"840 Nautica Dr, Suite 117",Jacksonville,32218
Duval,2613655,Subway,4368 University Blvd S,Jacksonville,32207
Duval,2611410,Golden House,5201 Baymeadows Blvd,Jacksonville,32217
Marion,5200016,Richard's Place,316 E Silver Spgs Blvd,Ocala,344705830
Manatee,5105483,Hibachi Grill Buffet,3616 1 St,Bradenton,34208
Lee,4604335,Sunset Grill,3440 Marinatown Lane,N Ft Myers,33903
Sarasota,6801848,Amf Venice #205,1100 S Venice By Pass,Venice,34292
Okeechobee,5700682,2Nd Street Pizza Restaurant Inc,"202 NE 2, Suite Ste 10",Okeechobee,34972
Dade,2329475,Tasebudz,"860 NE 79 St, Suite B",Miami,33138
Dade,2327102,Fritanga Managuita,"11323 SW 211 St #12,13,14",Miami,33189
Dade,2333630,Half Moon Empanadas,860 NE 79 St,Miami,33138
Dade,2335728,Commercial Kitchen 305,"860 NE 79 St, Suite B",Miami,33138
Broward,1618797,Papa Johns Pizza #1869,11933 W Sunrise Blvd,Sunrise,33323
Broward,1621063,Big Louie's Pizzeria,10041 Sunset Strip,Sunrise,33322
Broward,1624561,Four Seasons At Parkland,9456  Vallen Court,Parkland,33076
Broward,1613247,Sr Ceviche Lighthouse Inc,3100 N Federal Hwy,Lighthouse Point,33064
Broward,1623155,Achsah's Jamaican Delight,5517 W Oakland Park Blvd,Lauderhill,33313
Broward,1610697,Little Caesar's Pizza,5201 W Broward Blvd,Plantation,33317
Palm Beach,6013610,Wing Wong,5891 S Military Trl #8A,Lake Worth,33463
Palm Beach,6021169,El Tikal Billar Of Lake Worth Corp,1014 Lake Ave #A,Lake Worth,33460
Pinellas,6217537,Big Apple Buffet Ii,1035 62 Ave N,St. Petersburg,33702
Pinellas,6213363,Don Cesar Sea Porch Cafe & Rowe Bar,3400 Gulf Blvd,St.Pete Beach,33706
Brevard,1506191,Sand On The Beach,1005 Atlantic St,Melbourne Beach,32951
Orange,5805079,China Hot Express Llc,4700 S Orange Blossom Trail,Orlando,32839
Orange,5809100,Orange 83 Pub And Grill,16301 Phil Ritson Way,Winter Garden,34787
Volusia,7405523,Original Giuseppe`S Pizza,3658 Nova Road,Port Orange,32129
Volusia,7404913,That's Amore,103 Pine St,New Smyrna Beach,32169
Baker,1200125,Frasers Corner Cafe,7163 E Mt Vernon St,Glen St Mary,32040
St. Johns,6500140,S W Cowboys Seafoods,299 Dondanville Road,St Augustine Bch,32080-6403
Duval,2615312,Trio Hookah Lounge,8725 Old Kings Road S,Jacksonville,32217
Putnam,6400874,Renegades On The River,1171 Cr-309,Crescent City,32112
Leon,4703234,Mellow Mushroom,1641 West Pensacola,Tallahassee,32304
Santa Rosa,6701304,Main Moon Chinese Restaurant,5444 Dogwood Dr,Milton,32570
Wakulla,7502856,Angelo's Seafood Restaurant,5 Mashes Sands Road,Panacea,32346
Okeechobee,5700491,Mom's Kitchen,909 S Hwy 441,Okeechobee,349745287
Manatee,5100161,Councils Bradenton Recreation,536 12Th St W,Bradenton,34205
Dade,2334234,Zuuk Mediterranean Kitchen,8880 SW 72 Pl,Kendall,33156
Broward,1618635,Papa Johns Pizza #915,7811 W Sunrise Blvd,Plantation,33313
Broward,1621890,Cafe Del Mar,101 S Fort Lauderdale Beach Blvd.,Fort Lauderdale,33316
Polk,6306922,Lakeland Panda World Inc,6214 US 98 N,Lakeland,33810
Pinellas,6217203,Locale,179 2nd Ave N,St. Petersburg,33701
Pasco,6113349,Kickin Wingz,8702 State Road 52,Hudson,34667
Volusia,7405763,Lenny's Ny Pizza,1456 Ocean Shore Blvd,Ormond By The Sea,32176
Brevard,1502641,Mystery Bistro,"575 S Wickham Road, Suite G",West Melbourne,32904
Brevard,1504228,Red Ginger,6300 N Wickham Road #128,Melbourne,32940
Orange,5812364,Viet-Nomz,7581 University Blvd,Winter Park,32792
Suwannee,7100093,Backwoods Burgers And Subs,508 US Hwy 27 Sw,Branford,32008
Duval,2613227,Basil Thai Restaurant And Bar,1004 Hendricks Ave,Jacksonville,32207
Marion,5202184,Sbarro,3100 SW College Road Space 202-2,Ocala,34474
Duval,2614564,Rowenas Cafe And Catering,"3627 University Blvd, Suite 125",Jacksonville,32216
Marion,5202709,Mandarin Express - Paddock Mall,3100 College Road #Vc04B,Ocala,34474
Duval,2613561,La Nopalera Mexican Restaurant,"14333 Beach Blvd, Suite 39",Jacksonville,32250
Leon,4703657,Pitaria Express,3001 Apalachee Parkway,Tallahassee,32301
Leon,4703167,Firehouse Subs,2580 N Monroe St,Tallahassee,32303
Lee,4602943,Burger Blast,"4135 Dr Martin Luther King Blvd, Booth # D-50",Fort Myers,33916
Lee,4605749,Carrabba's Italian Grill,762 Pine Island Road Sw,Cape Coral,33991
Dade,2330077,Subway 29896,1000 Park Center Boulevard,Miami,33169
Dade,2330043,Arlen Beach Cafe,5701 Collins Ave,Miami Beach,33140
Dade,2335883,El Platoneeka Inc,18304  SW 147th Ave,Miami,33187
Broward,1624233,Lalo & Jenn's Kitchen,827 E Oakland Park Blvd,Oakland Park,33334
Palm Beach,6010081,Lucky Palace,21659 State Road 7,Boca Raton,33428
Broward,1624278,Local Restaurant,4380 NE 31 Ave,Oakland Park,33309
Palm Beach,6012206,Jerome Carribean Rest,1412 Lucerne Ave,Lake Worth,33460
Broward,1622854,Q' Rico,2112 N University Dr,Sunrise,33322
Broward,1609691,Domino's Pizza,400 E Oakland Park Blvd,Wilton Manors,33334-2150
Palm Beach,6051926,Nette' Fresh Fritay,1489 N Military Trail,West Palm Beach,33409
Broward,1616672,New Mainland Restaurant,884 E Oakland Park Blvd,Oakland Park,33334
Palm Beach,6007976,La Sorelle Delray,20 SE 5 Ave,Delray Beach,33483
Palm Beach,6021885,Clare'S,1401 Clare Ave,West Palm Beach,33401
Hillsborough,3911960,Popeyes Chicken & Biscuits #93,2201 E Hillsborough Ave,Tampa,33610
Hillsborough,3916694,Tequilas Ybor,1613 E 7 Ave,Tampa,33605
Polk,6302342,Orange Bowl Lanes / Lucky'S,4318 US 98 N,Lakeland,33809
Sumter,7000576,Cody's Original Roadhouse,3731 Meggison Road,The Villages,32163
Pinellas,6217087,La Nueva Cantina,1625 4 St S,St. Petersburg,33701
Hillsborough,3912624,China Yuan Restaurant,8502 N Armenia Ave #A1,Tampa,33604
Volusia,7406492,Slims,5279 S Nova Road,Port Orange,32127
Brevard,1502107,Ichabod'S,2320 N Hwy A1A,Indialantic,329032568
Brevard,1502781,Northside Sports Grill,4835 W Eau Gallie Blvd,Melbourne,32935
Volusia,7406865,Lenny's New York Pizza Ii,298 S Nova Road,Ormond Beach,32174
Brevard,1501772,Kay's Real Pit Bar-Bq,1552 W King Street,Cocoa,329265120
Brevard,1502915,Shore Lanes #2 & City Limits Lounge,4851 S Dairy Road,Melbourne,32904
Duval,2613254,Subway #28474,9908 Old Baymeadows Road,Jacksonville,32256
Duval,2607822,Popeyes Chicken&Biscuits #159,626 N Edgewood Ave,Jacksonville,322543079
Bay,1305716,Golden Chick,3710 Hwy 98,Panama City,32401
Bay,1305533,Ramons Pizza,4100 W Hwy 98,Panama City,32405
Leon,4702548,Tally Thai And Sushi,2037 W Pensacola St,Tallahassee,32304
Leon,4703061,G & G Carribbean & American Restaurant,2039 W Pensacola St,Tallahassee,32304
Bay,1304781,Hardee's #5402,3439 Hwy 77,Lynn Haven,32444
Leon,4703158,Brooklyn Pizza,2035 W Pensacola St,Tallahassee,32304
Collier,2102593,Anthony's Mexican Restaurant,103 E Main Street,Immokalee,34142
Sarasota,6800217,Coffee Carousel,1644 Main St,Sarasota,342365811
Dade,2326659,Restaurant Universal Del Pueblo,300 W 21 St,Hialeah,33010
Dade,2316316,Cafe Ruyi,5300 NW 7 Ave,Miami,33127
Dade,2331198,Kyojin Japanese Seafood Buffet,6212 S Dixie Hwy,South Miami,33143
Dade,2328221,Sushi Sake,14649 SW 104 St #19,Miami,33186
Dade,2333698,Aji Carbon,16978 NE 19 Ave,North Miami Beach,33162
Dade,2335224,Yellow Tail Sub & Grill,11609 SW 216 Street,Miami,33170
Palm Beach,6013697,Ichiban Sushi And Thai,"7400 N Federal Hwy, Suite C5",Boca Raton,33487
Broward,1614974,A Thai,6419 Stirling Road,Davie,33314-7126
Broward,1653054,Leomar Food Service,9837 W Sample Road,Coral Springs,33065
Broward,1619463,Las Carnitas Inc,3221 W Davie Blvd,Fort Lauderdale,33312
Hillsborough,3910936,Tn Crab Shack,2120 E Sligh Ave,Tampa,336101256
Hernando,3701122,The  Shoal Line Waterfront Pub,3305 Shoal Line Blvd,Hernando Beach,34607
Hillsborough,3916898,Royal Sweets,2025 E Fowler Ave,Tampa,33612
Pinellas,6215532,A Slice Of New York,338 Corey Ave,St Pete Beach,33706
Hillsborough,3952305,Pedro Baltazar,2113 W Reynolds St,Plant City,33563
Orange,5853272,Heavenly Hot Dogs - Vin 0206,3592 Aloma Ave,Winter Park,32792
Duval,2651824,Alma Food Truck,1712 Ogilvie Park Ln,Jacksonville,32246
Duval,2612551,Hunan Wok,5566 Fort Caroline Road #22,Jacksonville,32277
Gadsden,3000401,Rutabaga Cafe/Soiree Catering,23  Jackson St,Chattahoochee,32324
Lee,4603969,Nino's Thick & Thin Italian Restaurant,18911 S Tamiami Trl #11,Fort Myers,339084702
Lee,4603305,Dominos 4945,13008 Palm Beach Blvd,Fort Myers,33905
Dade,2335549,Plomo,230  Miracle Mile,Coral Gables,33134
Broward,1622168,Villagio Restaurant,1760 Sawgrass Mills Cir,Sunrise,33323
Palm Beach,6004946,Arby's # 841,4275 Okeechobee Blvd,West Palm Beach,33409
Broward,1621611,Indian Harbor,1830 Cordova Road,Fort Lauderdale,33316
Palm Beach,6021645,Taverna Trela,"4801 Linton Blvd, #B5-B8",Delray Beach,33445
Broward,1616745,Notre Dame Rest,4859 N Dixie Hwy,Pompano Beach,33064-4861
Broward,1609688,Pizza & Brew,53 NE 44 St,Oakland Park,33334
Pinellas,6217075,Taste Of The Islands,364 1 Ave N,St. Petersburg,33701
Citrus,1900006,Kentucky Fried Chicken,849 SE US 19,Crystal River,34429
Hillsborough,3913146,Clementine,300 East Sligh Ave,Tampa,33604
Hernando,3700820,Up 4 Breakfast,14359 Spring Hill Drive,Spring Hill,34609
Pinellas,6214485,Stonefire Tavern,10637 117 Dr North,Largo,33773
Hillsborough,3904191,Crystal's Fast & Best,4935 E 7 Ave,Tampa,33605
Orange,5813765,Max & Me Bakery Restaurant,23 W Michael Gladden Blvd,Apopka,32703
Lake,4502288,Outback Steakhouse,1625 E Hwy 50,Clermont,34711
Orange,5809008,Anh Hong Restaurant,1124 E Colonial Dr,Orlando,32803
Orange,5804778,Orlando Grill And Restaurant Inc,749 S Semoran Blvd,Orlando,32807
Duval,2610895,Charlie's Diner,8929 Philips Hwy,Jacksonville,32256
Marion,5201415,Charlie Horse Restaurant,2426 E Silver Spgs Blvd,Ocala,344706909
Marion,5202681,Latin American Cafe,1427 NE 25 Ave,Ocala,34470
Duval,2607128,C & W Soul Wings & Things,1501 Lanes Ave S,Jacksonville,32210
Duval,2651754,Ruta Catracha,6536 Beach Blvd,Jacksonville,32216
Duval,2613308,Tunis University,1352  University Blvd N,Jacksonville,32211
Bay,1304997,Thai Basil Restaurant,1001 Beck Ave,Panama City,32401
Collier,2102451,Juanitas,204 Boston Ave,Immokalee,34142
Lee,4604448,Restaurant & Lechonera El Jibarito Inc,"522 Joel Blvd, Suite A",Lehigh Acres,33972
Dade,2334349,Leamington Hotel,307 NE 1 St,Miami,33132
Dade,2318102,Kentucky Fried Chicken,17701 NW 27 Ave,Miami Gardens,33056
Dade,2328769,Pirates Raw Bar & Grill Llc,17850 W Dixie Hwy,Miami,33160
Broward,1616006,Myapapaya,"1040 Bayview Dr, Suite 100",Fort Lauderdale,33304
Palm Beach,6021666,Cafeteria Hellen,4047 Okeechobee Blvd #207,West Palm Beach,33409
Palm Beach,6019154,Corner Porch,85 SE 6 Ave,Delray Beach,33483
Broward,1610937,Silver Pon To Go,5100 W Commercial Blvd #6,Tamarac,33319
Broward,1622990,Cafe Med By Bice,2096 NE 2 St,Deerfield Beach,33441
Broward,1622768,Muscle Maker Grill,230 S Federal Hwy,Deerfield Beach,33441
Pinellas,6217536,El Punto Latino Restaurant & Bar,"2862 Gulf To Bay Blvd, Suite D",Clearwater,33759
Hillsborough,3915659,Hula Bay Club/Dukes Retired Surfers Island Bar,5210 W Tyson Ave,Tampa,33611
Brevard,1503857,Pub Americana,405 Delannoy Ave,Cocoa,32922
Brevard,1505609,Rolli Porkloin Extraordinaire,31 East New Haven Ave,Melbourne,32901
Duval,2614855,Lum Thai Restaurant,6251 Argyle Forest Blvd #102,Jacksonville,32244
Columbia,2200274,The Country Club At Lake City,717 NW Fairway Drive,Lake City,32055
Alachua,1102556,Nola's Cajun Po'Boy & Seafood,3200 NW 98 St,Gainesville,32606
Leon,4703587,Lindys Chicken @Lake Jackson,"3813 N Monroe St, Suite 1",Tallahassee,32303
Leon,4702440,Beef O' Brady'S,1800 Thomasville Road,Tallahassee,32303
Dade,2320789,Rinconcito Paisa Restaurant Inc,12823 SW 42 St,Miami,33175
Dade,2322763,China Garden,2360 W 68th St 121,Hialeah,33016
Broward,1617772,The New Blue Mountain Restaurant & Lounge,1430 N State Road 7,Lauderhill,33313
Hillsborough,3918244,Andrew Pandrew's Jerk Hut A Jamaican Drive Up Eatery,1045 E Hillsborough Ave,Tampa,33603
Hillsborough,3912002,China 88,"8005 Citrus Park Town Center, Fc8",Tampa,33625
Pinellas,6215932,Chipotle Mexican Grill #713,3700 Park Blvd,Pinellas Park,33781
Hillsborough,3910561,Riviera Restaurant,14819 N Dale Mabry,Tampa,336182027
Hernando,3701115,La Bella Napoli Italian Restaurant,7390 Shoal Line Blvd,Weeki Wachee,34607
Seminole,6905052,Sophia Food Store,123 Jackson Street,Altamonte Springs,32701
Lake,4500009,Green Valley Country Club,14601 Green Valley Blvd,Clermont,34711
Brevard,1500297,Galaxy Skateway & Play Zone,1488 Aurora Road,Melbourne,329355382
Lake,4508733,Applebee's Neighborhood Grill & Bar,2050 East Highway 50,Clermont,34711
Marion,5203000,Southern Palate,12009 S Williams Street,Dunnellon,34431
Gadsden,3000387,Pizza Hut #1999,"710 Hwy 27 S, Suite A",Havana,32333
Leon,4703592,Smashburger,222 S Magnolia Dr,Tallahassee,32301
Okeechobee,5700463,Joey's Supreme Pizza,107 SW Park St,Okeechobee,34972
Lee,4605221,Hook Fish And Chicken,3315 Dr Martin Luther King Blvd,Fort Myers,33916
Dade,2335389,El Lyon Super Restaurant,13202 W Dixie Hwy,North Miami,33161
Dade,2335758,Madlab Creamery Palm Court,140 NE 39 St # 137,Miami,33137
Dade,2330745,Cibo Wine Bar,45 Miracle Mile,Coral Gables,33134
Broward,1623821,Nikki's Orange Kitchen,1 Ocean Blvd Sp 102,Pompano Beach,33062
Palm Beach,6000486,Dixie Fried Chicken,133 SW Ave E,Belle Glade,33430-3922
Broward,1611847,Silver Pond Chinese Restaurant,4285 N State Road 7,Lauderdale Lakes,33319
Pasco,6113331,Marco's Pizza,27616 Wesley Chapel Blvd,Wesley Chapel,33544
Hillsborough,3916152,James Joyce Irish Pub & Eatery,1724 E 8 Ave,Tampa,33605
Hillsborough,3915688,The Galley Cafe,107 Manns Harbor Drive,Apollo Beach,33572
Pinellas,6209503,Siam Garden Thai Restaurant,3125 N 9 St,St Petersburg,337042036
Pinellas,6215243,Top Slice,21 3 St N,St. Petersburg,33701
Brevard,1505821,Tequila Azul Llc,6630 Colonnade Ave,Melbourne,32940
Orange,5808531,Steak N Shake #316,12035 E Colonial Dr,Orlando,32826
Duval,2615100,Food House,1855 N Main St,Jacksonville,32206
Duval,2612983,Fatballs Sports Bars And Grill,"7457 103 Road St, Suite 7",Jacksonville,32210
Santa Rosa,6701248,Golden Dragon,9914 Navarre Pkwy,Navarre,32566
Escambia,2702103,Captain D's Seafood Rest #9467,4373 W Fairfield Dr,Pensacola,325054736
Dade,2331980,Vida,4441 Collins Ave,Miami Beach,33140
Broward,1623592,Ihop,2112 N Flamingo Road,Pembroke Pines,33028
Palm Beach,6011998,El Caraibeno,818 Federal Hwy,Boynton Beach,33435
Broward,1620330,Wing Loon Chinese Food Takeout,3520 N Andrews Ave,Oakland Park,33309
Broward,1623799,Bojos Seafood Kitchen,"731 Hammondville Road, Suite F",Pompano Beach,33060
Broward,1624553,Maoz Dragon Breath,12801 W Sunrise Blvd Space # 198,Sunrise,33323
Palm Beach,6020064,Chipotle Mexican Grill,"1000 S State Road 7, Suite 2",Wellington,33414
Broward,1609404,Eric's Authentic Mexican Food Restaurant,625 E Atlantic Blvd,Pompano Beach,33060
Pinellas,6211228,Columbia Restaurant,1241 Gulf Blvd,Clearwater Bch,33767
Hillsborough,3902898,The Sandpiper Grille,1702 S Pebble Beach Blvd,Sun City Center,33573
Hillsborough,3915640,Fried Rice King,6117 N Florida Ave,Tampa,33604
Lake,4508645,Magical Meat Boutique,112 W 3 Ave,Mount Dora,32757
Brevard,1505926,Honeysuckle,2203 N US Hwy 1,Titusville,32796
St. Lucie,6602533,Culinary Village Catering,1592 Village Green Dr,Port St Lucie,34952
Brevard,1506001,Thai Thai House,6977 N Wickham Road,Melbourne,32940
Osceola,5910517,Chino Rico,1315 N John Young Pkwy,Kissimmee,34741
Duval,2615567,Mediterranean Grill,"5230 Baymeadows Road, Suite 10",Jacksonville,32217
St. Johns,6501775,Zoe's Kitchen,240 Fl A1A,Ponte Vedra Bch,32082
Duval,2651531,Norive Wings & Things,2235 Soutel Dr,Jacksonville,32208
Putnam,6400494,Palmeras Restaurant And Grocery,105 N Summit St,Crescent City,32112
Dade,2325065,Gigis Gourmet Catering,1082 NW 54 St,Miami,33127
Dade,2327899,Saffron Indian Cuisine,18090 Collins Ave #T-22,Sunn Isle Beach,33160
Dade,2331864,Venus Restaurant,13785 NW 7th Ave,North Miami,33168
Broward,1623200,I Sushi Cafe,8970 Cleary Blvd,Plantation,33324
Broward,1623629,Los Tacos By Chef Omar,230 S University Dr,Plantation,33324
Palm Beach,6021656,Dunkin Donuts,500 N State Road 7,Royal Palm Beach,33411
Martin,5300561,China Star Restaurant,1501 S US Hwy 1,Stuart,34994
Palm Beach,6006859,Sbarro,801 N Congress Ave,Boynton Beach,33426
Broward,1621050,Mac Daddy Sub Cafe,8966 Cleary Blvd,Plantation,33324
Pinellas,6213874,Bayside Bar & Grill,20967 US 19 N,Clearwater,33765
Polk,6301062,Dairy Queen,1795 N Broadway Ave,Bartow,33830
Pasco,6101307,Susie's Family Restaurant,6476 Ridge Road,Port Richey,34668
Pinellas,6206621,Peter`S Family Restaurant,2101 Starkey Road,Largo,337715340
Hillsborough,3912683,Haagen Dazs,2223 N Westshore Blvd Fc 209,Tampa,33607
Pinellas,6217825,Hideaway Pizza Pub,3901 6 St S,St. Petersburg,33705
Pinellas,6216901,Deccan Spice Tampa Bay,"2325 Ulmerton Road, Suite 28",Clearwater,33762
Hillsborough,3916903,Cafe Delanie,3016 US Hwy 301 N #100,Tampa,33619
Pinellas,6217366,Maria Alicia's Cantina,530 Cleveland St,Clearwater,33755-4008
Orange,5808237,Oley's Kitchen & BBQ,2700 S Rio Grande Ave,Orlando,32805
Brevard,1505900,Steak N Shake #641,6728 Colonnade Ave,Viera,32940
Clay,2001382,Charlie's Southern Bistro,206 S Orange Ave,Green Cove Springs,32043
Marion,5200012,Fat Boys B B Q,4132 NE Silver Spgs Blvd,Ocala,344705004
St. Johns,6501941,Gourmet Hut,17 Cuna St,Saint Augustine,32084
Okaloosa,5603972,"Fishheads Of Destin, Llc",98 B Harbor Blvd,Destin,32541
Okaloosa,5601744,Burger King #05557,751 Hwy 98 E,Destin,32541
Bay,1304663,Chubby'S,8100 Thomas Dr,Panama City,32408
Highlands,3800830,Jc Tin Cup Grill,4800 Haw Branch Road,Sebring,33875
Lee,4650856,Los Taquitos Mexican Food Big Martinez Lehigh Acres,3305 Lee Blvd,Lehigh Acres,33972
Dade,2325054,Kelly's Cajun Grill,20505 S Dixie Hwy #1879,Miami,33189
Dade,2303388,Captains Tavern,9621 S Dixie Hwy,Miami,331562804
Monroe,5401367,Riviera Sandwich Shop,3100 Flagler Ave,Key West,33040
Dade,2334582,Nikudo Japanese Buffet,18812 S Dixie Hwy,Cutler Bay,33157
Dade,2331134,La Bodega Restaurant,13774 SW 88 St,Miami,33186
Broward,1617043,May's Kitchen,19 N Federal Hwy,Pompano Beach,33062
Broward,1617904,Lombardi's Sunrise,11130 W Oakland Park Blvd,Sunrise,33351
Hillsborough,3910137,First Choice BBQ,10113 Adamo Dr,Tampa,336192656
Pinellas,6216432,Tequilas Mexican Grill & Cantina Llc,401 South Fort Harrison,Clearwater,33756
Pasco,6113237,China Gourmet Take-Out,"30000 County Line Road, Unit #10",Wesley Chapel,33543
Pinellas,6217107,Halong Bay 2,"10500 Ulmerton Road, Suite 288",Largo,33771-3536
Pasco,6102726,The Great Catch,5039 1 St,Zephyrhills,33542
St. Lucie,6603191,La Hacienda Tacos & Beer,1008 SE Port St Lucie Blvd,Port St Lucie,34952
Brevard,1504041,Wendy's #466,395 E Eau Gallie Blvd,Indian Harbour Beach,32937
St. Lucie,6603143,Maddy's Authentic Caribbean Cuisine,1002 SE Port St Lucie Blvd,Port St Lucie,34952
Orange,5812118,Bikkuri Sushi Noodle And Grill,1919 E Colonial Dr,Orlando,32803
Volusia,7406401,Laubster's Catering,409 Mary Ave,New Smyrna Beach,32168
Seminole,6905086,Angel's Soul Food #2,2516 S Sanford Ave,Sanford,32773
Lake,4502036,Tillie's Tavern & Grill,31 E Magnolia Ave,Eustis,32726
Volusia,7406594,Camelot Country Restaurant,351 N US Highway 1,Oak Hill,32759
Duval,2651842,Crazy Dawgs,12945 Atlantic Blvd,Jacksonville,32225
Duval,2610431,Wipeouts Grill,1585 Atlantic Blvd,Neptune Beach,32266
Duval,2600685,Krystal Jax-09,7459 Lem Turner Road,Jacksonville,322083350
Duval,2612750,Casa Marina Hotel & Rest (The),691 N 1 St,Jacksonville Bch,32250
Leon,4702484,Great Wall Chinese Restaurant,4220 W Tennessee St,Tallahassee,323041033
Sarasota,6801827,Amores Ristorante Inc,2357 Tamiami Trail S,Venice,34293
Collier,2102750,Bice,300 5 Ave South,Naples,34102
Lee,4605343,The Edison Restaurant,3583 Mcgregor Blvd,Fort Myers,33901
Dade,2328899,Kiosko Cubano,13290 W Dixie Hwy,North Miami,33161
Dade,2335257,Aunty Gwen's Jamaican Restaurant,10686 SW 186 Ln,Miami,33157
Monroe,5401394,Onlywood Pizzeria Trattoria,613 1/2 Rear Duval St,Key West,33040
Dade,2325906,Nicoya Nicaraguan Grill,2900 W 12 Ave #8,Hialeah,33012
Broward,1609274,China One,7820 W Sample Road,Margate,33065
Broward,1619402,Artibonite Caribean Restaurant,7824 W Sample Road,Margate,33065
Broward,1618985,Islamorada Fish Company,220 Gulfstream Way,Dania Beach,33004
Hillsborough,3910719,The Hungry Greek,10041 N Dale Mabry Hwy,Tampa,33618
Polk,6308173,Marco's Pizza,703 N Combee Road,Lakeland,33801
Pinellas,6212759,Los Mariaches #2,9100 Ulmerton Road,Largo,337713821
Seminole,6902095,Pho Ben Thanh,980 W State Road 434,Longwood,32750
Volusia,7406186,Budget Inn & Bar & Restaurant,2801 E New York Ave,Deland,32724
Orange,5813414,China Garden Inc Of Lin,2550 W Colonial Dr #100,Orlando,32804
Alachua,1103518,Grand Cafe,13 W University Ave,Gainesville,32601-5313
Marion,5201971,Stonecrest Golf Club,11560 SE 176 Place Road,Summerfield,34491
St. Johns,6550179,Pele's Wood Fire / Pele's Fire Pizza,1204 Wild Palm Ct,Saint Augustine,32084
Duval,2615685,Jumpin Jax House Of Food,1021 Atlantic Blvd,Atlantic Beach,32233
Duval,2600820,Holley's Bar B Que,3604 Moncrief Road,Jacksonville,32209
Manatee,5102968,River Club Grille,6600 River Club Blvd,Bradenton,34202
Manatee,5104559,China Taste,8421 Tuttle Ave,Sarasota,34243
Lee,4602966,Perkins Restaurant & Bakery,1551 Del Prado Blvd S,Cape Coral,33990
Sarasota,6805081,Myakka Outpost Inc,13208 State Road 72,Sarasota,34241
Dade,2357270,Taco Fresh Llc,2517 NW 21 Terr,Miami,33142
Broward,1623353,The Whole Enchilada Fresh Mexican Grill,"8000 W Broward Blvd, Unit 1820",Fort Lauderdale,33304
Hillsborough,3917093,Nutrition Solutions,3609 N 15 St,Tampa,33605
Hillsborough,3916818,Cheval Golf And Country Club,4312 Cheval Blvd,Lutz,33558
Hillsborough,3917620,Pinchers Crab Shack,14391 North Dale Mabry Hwy,Tampa,33618
Pinellas,6206280,Denny'S,940 Missouri Ave,Largo,33770
Pinellas,6216875,La Fondita De Leo,528 Cleveland St,Clearwater,33755
Brevard,1505960,Happy Kitchen,3014 W New Haven Ave,West Melbourne,32904
Brevard,1505772,Divine Grace Caribbean Restaurant,214 Ermerson Dr NW Ste-5,Palm Bay,32907
Orange,5801515,Palms Restaurant,6327 International Dr,Orlando,32819
Lake,4502144,Burger King #13907,1990 N State Road 19,Eustis,32726
Alachua,1102935,Chick-Fil-A Oaks Mall,"6419 W Newberry Road, Suite G8",Gainesville,32605
Columbia,2200663,Super 8 Lake City Florida,3954 SW State Road 47,Lake City,32024
Alachua,1102937,Asian Chao/ Maki Of Japan,6419 E Newberry Road G4,Gainesville,32605
Columbia,2200629,Hardee'S,2399 SW Baya Dr,Lake City,32055
Duval,2614258,Magic Wings And Things,10670 Biscayne Blvd,Jacksonville,32218
Okaloosa,5603812,Mary's Kitchen,"99 Eglin Parkway, Suite 42",Fort Walton Beach,32548
Leon,4703426,Zacadoo's Grille,2870 Apalachee Pkwy,Tallahassee,32311
Manatee,5103819,Banana Factory,6916 W 14 St,Bradenton,342075811
Collier,2103484,Fify'S,320 Alachua Street,Immokalee,34142
Manatee,5105194,Willy-Yums,2003 14 St W,Bradenton,34205
Dade,2316703,Oriental Express Chinese Food,3962 Curtiss Parkway,Miami Springs,33166
Broward,1611119,Bowlero Davie,8200 W State Road 84,Davie,33324
Palm Beach,6019431,Le Bon Gout Restaurant Llc,1230 S Dixie Hwy,Lake Worth,33460
Palm Beach,6009715,Temple Orange,100 S Ocean Blvd,Manalapan,33462
Pasco,6100228,Thai Bistro,5414 Main St,New Port Richey,34652
Hillsborough,3951233,Chicken & Taco Loco,105 W Brandon Blvd,Brandon,33511
Polk,6308268,Mi Tierra Tex-Mex Restaurant,223 N Wabash Ave,Lakeland,33815
Pasco,6102186,Icon Gentleman's Club,18722 US Hwy 19,Hudson,346676693
Pasco,6150545,Dona Orlanda Tortas Y Tacos,37511 Lock St,Dade City,33523
Pinellas,6216609,Bella Brava,204 Beach Dr Ne,St. Petersburg,33701
Pinellas,6215212,I Thai & Sushi,11002 Seminole Blvd,Largo,33778
Hillsborough,3912597,Taste Of China,8476 Sheldon Road,Tampa,33615
St. Johns,6501566,Holiday Inn & Suites,1302 N Ponce De Leon Blvd,Saint Augustine,32084
Duval,2614858,The Original Tunis Seafood & Chicken #13,7400 103 St,Jacksonville,32210
Columbia,2200278,Two Fat Guys Burgers And Fries,161 SW Quail Heights Terr,Lake City,32025
Bay,1305164,Millies Llc,228 Harrison Ave #101,Panama City,32401
Santa Rosa,6701369,Peking House,8224 Navarre Pkwy,Navarre,32566
Jefferson,4300178,Doc's Diner Of Monticello,1015 N Jefferson St,Monticello,32344
Okaloosa,5603230,Jin Jin,642 S Ferdon Blvd,Crestview,32536
Dade,2333817,Ihop 36-217 North Miami,12875 Biscayne Blvd,North Miami,33181
Dade,2303372,Thunderbird Cafe,18401 Collins Ave,Miami Beach,331602402
Palm Beach,6051771,Churrasco Grill Llc,510 Lantana Road.,Lantana,33462
Broward,1620121,Coffee Break Llc,1900 West Commercial Blv,Fort Lauderdale,33309
Broward,1622273,Giovannis Coal Fired Pizza,165 NW 136 Ave,Sunrise,33325
Palm Beach,6020939,Terra Fiamma,9169 W Atlantic Ave #100,Delray Beach,33446
Palm Beach,6019804,Caribe Cafe,3068 Lake Worth Road #1,Palm Springs,33461
Hillsborough,3903569,Pokeys Rock And Rolls,100 E Madison St,Tampa,33602
Pinellas,6216388,Fays Deli & Subs,1538 16 St S,St. Petersburg,33705
Pinellas,6212123,Tavern On The Oaks,2751 Regency Oaks Blvd,Clearwater,33759
Pasco,6101152,Mcdonald's #7209,7226 State Road 54,New Port Richey,34653
Brevard,1504336,Steak & Lobster House,522 Ocean Ave,Melbourne Bch,329512524
Orange,5813552,Flavors Nigerian Restaurant,3530 S Orange Ave,Orlando,32806
Orange,5800351,Rio Pinar Golf Club-Banquet Kitchen,8600 El Prado Dr,Orlando,32825
Brevard,1505905,Jenna's Breezeway Bar & Grill,20 N Brevard Ave,Cocoa Beach,32931
Duval,2613302,Tunis,5059 Soutel Dr,Jacksonville,32208
Duval,2614918,Tunis Seafood Wings & Subs,2011 Emerson St,Jacksonville,32207
Duval,2615344,Chomp Chomp Restaurant,4162 Herschel St,Jacksonville,32210
Marion,5202455,Let's Eat Fresh,809 N Magnolia Ave,Ocala,34475
Marion,5202603,Subway,9570 SW Hwy 200,Ocala,34481
Marion,5201930,Sam's St Johns Seafood #3,7119 N US Hwy 441,Ocala,344751215
Marion,5202047,Sayulita Taqueria,10 NE 1 St,Ocala,34470
Duval,2611744,Hop Shing,"5751 N Main St, Suite 135",Jacksonville,32208
Alachua,1102991,Liquid Ginger,"101 SE 2 Pl, Suite 118",Gainesville,32601
Franklin,2900002,Apalachicola Seafood G&Steak H,100 Market St,Apalachicola,323201774
Collier,2102992,Camellia Street Grill,202 Camellia St,Everglades City,34139
Lee,4605702,Dairy Queen #41424,1419 NE Pine Island Road,Cape Coral,33909
Manatee,5103500,Fire & Stone,10519 Cortez Road W,Bradenton,34210
Manatee,5105460,Demi's Noodle House,1318 10 St W,Palmetto,34221
Dade,2313545,Papa Piccolo'S,8016 SW 81 St Dr,Miami,33143
Dade,2333632,La Playa Grill,9698 SW 328 St,Homestead,33033
Dade,2326819,Reys Pizza #10,1050 E 8 Ave,Hialeah,33010
Palm Beach,6019262,Croissanterie,9940 Belvedere Road Suite B,Royal Palm Beach,33411
Pasco,6102784,New Shanghai Chinese Restaurant I,6133 State Road 54,New Port Richey,34653
Pinellas,6207620,Friendly Fisherman Rest,150 128 Ave W,Madeira Bch,337082692
Polk,6306007,Bay Street Bistro,211 E Bay St,Lakeland,33801
Pasco,6102887,Little Mexico Restaurant,14314 7 St,Dade City,33523
Pinellas,6214941,Harold Seltzers Steakhouse,3500 Tyrone Blvd,St Petersburg,33710
Pinellas,6217831,Avocado's Food,6901 Tyrone Square #78,St. Petersburg,33710
Orange,5803361,The Basement,68 E Pine St,Orlando,32801
Orange,5810524,Winter Garden Pizza Company,42 W Plant St,Winter Garden,34787
Orange,5804849,Relax Grill At Lake Eola Llc,211 Eola Pkwy,Orlando,32801
Brevard,1506314,Checkers Drive-In Restaurant,4840 Babcock Road,Palm Bay,32905
St. Johns,6501423,Amici Italian Restaurant,"1915 S A1A, Suite B",St Augustine,32080
Alachua,1101791,43 St Deli & Breakfast House,4401 NW 25 Pl #C,Gainesville,326066569
Marion,5203011,Dunkin Donuts,3622 West Silver Springs Blvd,Ocala,34475
Marion,5201058,Mcdonald's #7231,3595 W Silver Springs Blvd,Ocala,34475
Duval,2651492,Chunky Tomato,2533 Stonebridge Dr,Jacksonville,32223
Leon,4702457,Steak N Shake #354,3394 Capital Cir Ne,Tallahassee,32308
Okaloosa,5603444,China Taste,255 Miracle Strip Pkwy Se,Fort Walton Beach,32548
Escambia,2706460,Spice And Spirits,1 N New Warrington Road,Pensacola,32506
Collier,2103370,Bayshore Restaurant Bar & Grill,4000 Bayshore Drive Unit A,Naples,34112
Manatee,5103800,Pool Room Forty One,5106 14 St W,Bradenton,34207
Manatee,5100204,Sea Hut Restaurant,U S Hwy 19 & 55 Ave,Palmetto,34221
Lee,4650703,Three Girls Inc,11941 Bonita Beach Road,Bonita Springs,34135
Collier,2102846,Island Gypsy Cafe And Marina Bar,292 Capri Blvd,Naples,34113
Dade,2318923,Rincon Progreseno,1169 NW 36 St,Miami,331273014
Dade,2322946,Cayard's Bakery,12801 West Dixie Hwy,North Miami,33161
Broward,1620219,Japan Inn Ii,1798 Market Street,Weston,33326
Broward,1609252,Feijao Con Arroz Restaurant,559 E Sample Road,Pompano Beach,33064-4425
Broward,1623409,J's Kitchen,196 N Federal Hwy,Deerfield Beach,33441
Broward,1618748,Baires Grill,2210 Weston Road,Weston,33326
Pasco,6113070,Subway Restaurant,8925 State Road 52,Hudson,34667
Hillsborough,3952176,Whaleys Blazin BBQ,911 Tomlinson Dr,Lutz,33549
Pasco,6102388,Johnny's Pizza,13229 US Hwy 19,Hudson,34667
Volusia,7405384,Chases On The Beach,3401 S Atlantic Ave,New Smyrna Beach,32169
Orange,5811514,Mi Viejo San Juan,7229 E Colonial Dr,Orlando,32807
Orange,5814238,Lion's Pride,123 West Church Streeet,Orlando,32801
Orange,5813285,Ben's Dog House,4951 Internationall Dr K-95,Orlando,32819
Seminole,6903962,Maitland Breakfast Club Inc,"745 Orienta Ave, Suite 1061",Altamonte Springs,32701
Volusia,7407197,Hamburger Marys Daytona Llc,180 N Beach St,Daytona Beach,32114
Duval,2612817,Mr Snappers Fish & Chicken,808 Edgewood Ave N,Jacksonville,32254
St. Johns,6501234,Thai House & Sushi Bar,21 Hypolita St,Saint Augustine,32084
Duval,2613391,Uncle Genes Soul & Seafood Cafe,5123-4 Timuquana Road,Jacksonville,32210
Duval,2607704,Famous Amos Restaurant,3911 W University Blvd,Jacksonville,32217
Madison,5000107,Dennys Of Madison,I 10 & State Road 53,Madison,32340
Gadsden,3050059,Taqueria Mi Pueblito,1921 W Jefferson St,Quincy,32351
Manatee,5105248,Samurai Japanese Steak House,3611 1 St #110,Bradenton,34208
Manatee,5103447,Primo Ristorante,8076 N Tamiami Trl,Sarasota,342432057
Sarasota,6805197,The Breakfast House,1817 Fruitville Road,Sarasota,34236
Dade,2319474,El Don Pepe Restaurant Corp,9090 NW South River Dr #1-3,Miami,33166
Dade,2335703,Soya Sushi Bar,11402 NW 41 St # 101,Doral,33178
Broward,1620257,Golden Corral #873,9045 Pines Blvd,Pembroke Pines,33024
Broward,1619656,Tumi Restaurant,7926 W Sample Road,Margate,33065
Palm Beach,6019495,Golden Corral,10100 Fox Trail Road S,Royal Palm Beach,33411
Broward,1617917,Carrabba's Italian Grill,2501 University Dr,Coral Springs,33065
Broward,1623197,Giardinos Gourmet Salads,13775 W Sunrise Blvd,Sunrise,33323
Hillsborough,3951875,Cali Burger,117 Hyde Park Ave S,Tampa,33634
Pinellas,6200737,Munch Sundries,3920 S 6 St,St Petersburg,337053818
Pinellas,6217580,Umai Sushi,1712 Missouri Ave,Largo,33770
Orange,5811881,American Gyro Place,707 S Orange Blossom Trl,Orlando,32805
Orange,5813177,A-Aki Sushi Steakhouse,1400 W. Sandlake Road,Orlando,32809
Duval,2613985,Mcdonald's Restaurant,1003 Hwy 301 S,Baldwin,32234
Flagler,2800425,Hammock Dunes Clubhouse,30 Avenue Royale,Palm Coast,32137
Duval,2607266,Uncle Charlie,1977 Lane Ave,Jacksonville,322102741
Duval,2613793,Success Chinese Restaurant,7900 103 St #28,Jacksonville,32210-6660
Duval,2608683,Sliders,218 1 St,Neptune Beach,32266
Marion,5202992,Zaxby'S,6033 SW Hwy 200,Ocala,34481
Columbia,2200589,Costa Del Sol Latin Restaurant,2260 W US  Hwy 90,Lake City,32055
Duval,2615430,Jollibee # 47,11884 Atlantic Blvd,Jacksonville,32225
Leon,4703709,Da Khyber Grill,"2819 Mahan Dr , Suite 110",Tallahassee,32308
Lee,4606575,Pollo Tropical,17804  Ben Hill Griffin Pkwy,Fort Myers,33913
Manatee,5103954,New King Buffet Usa Inc,1429 8 Ave W,Palmetto,34221
Sarasota,6805553,Sweet Mom,1473 Main St,Sarasota,34236
Sarasota,6800276,Barnacle Bills Seafood N Trail,5050 N Tamiami Trl,Sarasota,342343875
Manatee,5105561,Wasabi Steakhouse,5770 Ranch Lake Blvd #116,Bradenton,34202
Broward,1609132,Bollywood Biryani,8270 Griffin Road,Davie,33328
Palm Beach,6021058,Firehouse Subs,1920 NE 5 Ave,Boca Raton,33431
Pinellas,6217046,Saki Endless Sushi & Hibachi Eatery,"2643 Gulf To Bay Blvd, Suite 1550-1560",Clearwater,33759
Hillsborough,3910069,On The Mark Catering Llc,401 S 50 St,Tampa,33619
Polk,6308290,Floria Seafood,1207 E Canal St,Mulberry,33860
Pinellas,6209306,Sharks Bar & Grill,"1479 Belcher Road S, Suite Pqrs",Largo,33771
Pasco,6150736,Whiney Abreu,3043 Clover Blossom,Land O' Lakes,34638
Polk,6303478,Ling's Buffet,4320 S Florida Ave,Lakeland,33813
Volusia,7407373,Double Barrel Grill Llc,2900 Bellevue Ave,Daytona Beach,32124
Orange,5814277,East Manor,"5600 W Colonial Dr , Suite 308",Orlando,32808
Orange,5813855,Yamasan Japanese Restaurant,1606 N Mills Ave,Orlando,32803
Duval,2609086,Jax Market Place Take-0Ut #1,614 Pecan Park Road,Jacksonville,32218
Duval,2609087,Jax Market Place Take Out #2,614 Pecan Park Road,Jacksonville,32218
Marion,5202762,Lees Famous Recipe Chicken,"9548 SW State Road 200, Suite 001",Ocala,34481
Escambia,2705972,Wings On The Go,9409 Hwy 98 W #10,Pensacola,32506
Bay,1304525,Regency Tower Enterprizes,5801 Thomas Drive,Panama City,32408
Escambia,2702596,Hardee's #1510,1570 W Fairfield,Pensacola,32501-1123
Okaloosa,5603321,Anglers Beachside Grill,1030 Miracle Strip Pkwy,Ft Walton Bch,32548
Bay,1305004,Dat Cajun Place Cafe,8501 Thomas Dr,Panama City Beach,32408
Dade,2313057,Cake's Thai Kitchen,7919 Biscayne Blvd,Miami,33138
Broward,1621986,Bap Bistro,149 NW 136 Ave,Sunrise,33325
Broward,1618290,Dragon Gourmet Buffet,1091 S University Dr,Plantation,33324
Broward,1615203,Norb's Moonshine & More,342 E Mcnab Road,Pompano Beach,33060
Pinellas,6200531,Gulfport Restaurant,2025 S 49 St,Gulfport,337074915
Hillsborough,3912424,Antijitos Latin Cravings,2300 W Columbus Dr,Tampa,33607
Hillsborough,3917258,Mcalister's Deli,4410 Boy Scout Blvd Suite 150,Tampa,33607
Polk,6307445,Il Forno Restaurant & Pizzeria,3615 S Florida Ave,Lakeland,33803
Pinellas,6216858,Harry's Kitchen,5300 Gulf Blvd,St. Pete Beach,33706
Orange,5852693,Planet Pizza Hot Dog No1 Vin #5905,14 W Washington St,Orlando,32801
Orange,5813098,Chai Thai Cuisine,13747 S John Young Pkwy,Orlando,32837
Orange,5800138,Steak N Shake Rest #73,2820 E Colonial Dr #073,Orlando,328035002
St. Lucie,6600105,Club Med Main Dining & Infinity Pool Bar,3500 SE Morningside Blvd,Port St Lucie,34952
Orange,5804816,Bryans Kitchen,13875 State Road 535,Orlando,328216369
Orange,5813266,Ta-Ke Sushi Bar Llc,1421 N Orange Ave,Orlando,32804
Duval,2611645,Athens Cafe,6271 St Augustine Road #7,Jacksonville,32217
Alachua,1103528,If It Is,104 S Main St,Gainesville,32601
Marion,5202067,Golden Corral,2111 SW College Road,Ocala,34471
Duval,2613186,Wendy's #75,12135 Lem Turner Road,Jacksonville,32218
Alachua,1103277,Red Wok,"24204 W Newberry Road, Suite F",Newberry,32669
Leon,4750450,Chile & Chili'S,6401 W Tennessee St,Tallahassee,32304
Lee,4607062,Ginza Sushi,4429 Cleveland Ave Unit 170,Fort Myers,33901
Hendry,3600472,Thomas Diner,1019 Harlem Academy,Clewiston,33440
Lee,4602606,Subway,4901 Palm Beach Blvd,Fort Myers,33905
Broward,1615087,Sheraton Suites Plantation,311 N University Dr,Plantation,33324
Broward,1624311,Asados El Paisa Broward,4828 N University Dr,Lauderhill,33351
Polk,6307888,Patio850,850 South Tennessee,Lakeland,33801
Polk,6301565,Subs N Such # 1,1008 S Florida Ave,Lakeland,338031118
Pinellas,6214729,Largo Family Restaurant,788 N Missouri Ave,Largo,33770
Polk,6308061,China Garden,1527 Bartow Road,Lakeland,33801
Brevard,1506433,Cheddar's Casual Cafe Inc,2130 W New Haven Ave,West Melbourne,32904
Volusia,7405556,Cajuncafegrill@Gmail.Com,1700 W Intl Speedway Blvd #140,Daytona Beach,32114
Orange,5811354,Catering By Motti,6807 Visitors Cir Unit I,Orlando,32819
Brevard,1504691,Straight Outta Philly Llc,"4657 US 1, Suite A",Rockledge,32955
Orange,5854590,Chilango's Tacos - Vin 07Ak,2640 Kunze Ave,Orlando,32806
Alachua,1102033,Looseys,120 SW 1 Ave,Gainesville,32601
Leon,4702922,California Chicken Grill,1904 W Pensacola St,Tallahassee,32304
Leon,4703759,Rev Cafe Tally Llc,1600 Miccosukee Road,Tallahassee,32304
Bay,1305398,Cool Running's Caribbean Cuisine,13312 Front Beach Road,Panama City Beach,32413
Sarasota,6802825,Prague,1551 Main St,Sarasota,34236
Manatee,5105509,Michelangelo Pizza,2957 University Pkwy,Sarasota,34243
Charlotte,1801357,Olympia Restaurant,3245 Tamiami Trail,Port Charlotte,33952
Highlands,3801045,China Buffet,"816 US 27 S, Suite A",Avon Park,33825
